,node_id,node_name,latitude,longitude,reeds_ba,voltage,load_participation_factor,bus_type,area,geometry,ReEDS_Region_UPDATE,nercr,transreg,subFERC,cendiv,st,interconnect,country,usda,aggreg,last_digits_node_id,id,FromBus,ToBus,Vn [kV],Length[km],Remarks,CKT,R [pu],X [pu],B [pu],Rate1[MVA],Rate2[MVA],Add [Y/N],Type,GeomCode,Conductor,Area,ReEDS_Region,Longitude,Latitude,last_digits_ToBus
0,10232006,INDRIV 4_232006,38.59,-75.23,p125,230.0,0.0,PQ,235_EI,"POINT(38.59,-75.23)",p125,PJM,PJM,PJM_East,SA,DE,eastern,USA,northeast,DE,232006,694,700043,232006,500230,0.0,New 500/230 kV 2W Transformer,1.0,0.0,0.12,0,2000.0,2000.0,Y,2TF,,,,,,,232006
1,10232006,INDRIV 4_232006,38.59,-75.23,p125,230.0,0.0,PQ,235_EI,"POINT(38.59,-75.23)",p125,PJM,PJM,PJM_East,SA,DE,eastern,USA,northeast,DE,232006,695,700043,232006,500230,0.0,New 500/230 kV 2W Transformer,2.0,0.0,0.12,0,2000.0,2000.0,Y,2TF,,,,,,,232006
2,10300045,7MORGAN_300045,37.49,-93.62,p55,345.0,0.0,PQ,330_EI,"POINT(37.49,-93.62)",p55,SPP,SPP,SPP_South,WNC,MO,eastern,USA,corn-belt,MO_SPP,300045,316,700019,300045,500345,0.0,New 500/345kV 2W Transformer,1.0,0.0,0.12,0,2000.0,2000.0,Y,2TF,,,,,,,300045
3,10300045,7MORGAN_300045,37.49,-93.62,p55,345.0,0.0,PQ,330_EI,"POINT(37.49,-93.62)",p55,SPP,SPP,SPP_South,WNC,MO,eastern,USA,corn-belt,MO_SPP,300045,317,700019,300045,500345,0.0,New 500/345kV 2W Transformer,2.0,0.0,0.12,0,2000.0,2000.0,Y,2TF,,,,,,,300045
4,10232005,VIENNA_232005,38.49,-75.82,p123,230.0,0.0,PQ,235_EI,"POINT(38.49,-75.82)",p123,PJM,PJM,PJM_East,SA,MD,eastern,USA,northeast,MD,232005,702,700045,232005,500230,0.0,New 500/230 kV 2W Transformer,1.0,0.0,0.12,0,2000.0,2000.0,Y,2TF,,,,,,,232005
5,10232005,VIENNA_232005,38.49,-75.82,p123,230.0,0.0,PQ,235_EI,"POINT(38.49,-75.82)",p123,PJM,PJM,PJM_East,SA,MD,eastern,USA,northeast,MD,232005,703,700045,232005,500230,0.0,New 500/230 kV 2W Transformer,2.0,0.0,0.12,0,2000.0,2000.0,Y,2TF,,,,,,,232005
6,10531469,SPERVIL7_531469,37.86,-99.76,p53,345.0,0.0,PQ,534_EI,"POINT(37.86,-99.76)",p53,SPP,SPP,SPP_South,WNC,KS,eastern,USA,northern-plains,KS,531469,651,700039,531469,500345,0.0,New 500/345kV 2W Transformer,1.0,0.0,0.12,0,2000.0,2000.0,Y,2TF,,,,,,,531469
7,10531469,SPERVIL7_531469,37.86,-99.76,p53,345.0,0.0,PQ,534_EI,"POINT(37.86,-99.76)",p53,SPP,SPP,SPP_South,WNC,KS,eastern,USA,northern-plains,KS,531469,652,700039,531469,500345,0.0,New 500/345kV 2W Transformer,2.0,0.0,0.12,0,2000.0,2000.0,Y,2TF,,,,,,,531469
8,10511456,O.K.U.-7_511456,34.13,-99.15,p60,345.0,0.0,PQ,520_EI,"POINT(34.13,-99.15)",p60,ERCOT,ERCOT,ERCOT,WSC,TX,texas,USA,southern-plains,TX_W_ERCOT,511456,280,700012,511456,500345,0.0,New 500/345kV 2W Transformer,1.0,0.0,0.12,0,2000.0,2000.0,Y,2TF,,,,,,,511456
9,10511456,O.K.U.-7_511456,34.13,-99.15,p60,345.0,0.0,PQ,520_EI,"POINT(34.13,-99.15)",p60,ERCOT,ERCOT,ERCOT,WSC,TX,texas,USA,southern-plains,TX_W_ERCOT,511456,281,700012,511456,500345,0.0,New 500/345kV 2W Transformer,2.0,0.0,0.12,0,2000.0,2000.0,Y,2TF,,,,,,,511456
10,10525832,TUCO_INT   7_525832,33.87,-101.84,p48,345.0,0.0,PQ,526_EI,"POINT(33.87,-101.84)",p48,SPP,SPP,SPP_South,WSC,TX,eastern,USA,southern-plains,TX_SPP_N,525832,284,700013,525832,500345,0.0,New 500/345kV 2W Transformer,1.0,0.0,0.12,0,2000.0,2000.0,Y,2TF,,,,,,,525832
11,10525832,TUCO_INT   7_525832,33.87,-101.84,p48,345.0,0.0,PQ,526_EI,"POINT(33.87,-101.84)",p48,SPP,SPP,SPP_South,WSC,TX,eastern,USA,southern-plains,TX_SPP_N,525832,285,700013,525832,500345,0.0,New 500/345kV 2W Transformer,2.0,0.0,0.12,0,2000.0,2000.0,Y,2TF,,,,,,,525832
12,10523853,FINNEY     7_523853,37.92,-100.98,p52,345.0,0.0,PQ,526_EI,"POINT(37.92,-100.98)",p52,SPP,SPP,SPP_South,WNC,KS,eastern,USA,northern-plains,KS,523853,324,700021,523853,500345,0.0,New 500/345kV 2W Transformer,1.0,0.0,0.12,0,2000.0,2000.0,Y,2TF,,,,,,,523853
13,10523853,FINNEY     7_523853,37.92,-100.98,p52,345.0,0.0,PQ,526_EI,"POINT(37.92,-100.98)",p52,SPP,SPP,SPP_South,WNC,KS,eastern,USA,northern-plains,KS,523853,325,700021,523853,500345,0.0,New 500/345kV 2W Transformer,2.0,0.0,0.12,0,2000.0,2000.0,Y,2TF,,,,,,,523853
14,10601014,AS KING3_601014,45.03,-92.78,p43,345.0,0.0,PQ,600_EI,"POINT(45.03,-92.78)",p43,MISO,MISO,MISO_North,WNC,MN,eastern,USA,lake-states,MN,601014,724,700050,601014,500345,0.0,New 500/230 kV 2W Transformer,1.0,0.0,0.12,0,2000.0,2000.0,Y,2TF,,,,,,,601014
15,10601014,AS KING3_601014,45.03,-92.78,p43,345.0,0.0,PQ,600_EI,"POINT(45.03,-92.78)",p43,MISO,MISO,MISO_North,WNC,MN,eastern,USA,lake-states,MN,601014,725,700050,601014,500345,0.0,New 500/230 kV 2W Transformer,2.0,0.0,0.12,0,2000.0,2000.0,Y,2TF,,,,,,,601014
16,10304451,6GREENVILE T_304451,35.63,-77.37,p98,230.0,0.020987017,PQ,340_EI,"POINT(35.63,-77.37)",p98,SERC,SERTP,Southeast,SA,NC,eastern,USA,appalachia,NC,304451,49,700003,304451,500230,0.0,New 500/230 kV 2W Transformer,1.0,0.0,0.12,0,2000.0,2000.0,Y,2TF,,,,,,,304451
17,10304451,6GREENVILE T_304451,35.63,-77.37,p98,230.0,0.020987017,PQ,340_EI,"POINT(35.63,-77.37)",p98,SERC,SERTP,Southeast,SA,NC,eastern,USA,appalachia,NC,304451,50,700003,304451,500230,0.0,New 500/230 kV 2W Transformer,2.0,0.0,0.12,0,2000.0,2000.0,Y,2TF,,,,,,,304451
18,10243208,05JEFRSO_243208,38.74,-85.44,p107,765.0,0.0,PQ,205_EI,"POINT(38.74,-85.44)",p107,MISO,MISO,MISO_Central,ENC,IN,eastern,USA,corn-belt,IN,243208,514,700036,243208,765500,0.0,New 500/345kV 2W Transformer,1.0,0.0,0.12,0,2000.0,2000.0,Y,2TF,,,,,,,243208
19,10243208,05JEFRSO_243208,38.74,-85.44,p107,765.0,0.0,PQ,205_EI,"POINT(38.74,-85.44)",p107,MISO,MISO,MISO_Central,ENC,IN,eastern,USA,corn-belt,IN,243208,515,700036,243208,765500,0.0,New 500/345kV 2W Transformer,2.0,0.0,0.12,0,2000.0,2000.0,Y,2TF,,,,,,,243208
20,10652529,WATERTN3_652529,44.88,-97.04,p38,345.0,0.0,PQ,652_EI,"POINT(44.88,-97.04)",p38,SPP,SPP,SPP_North,WNC,SD,eastern,USA,northern-plains,SD_SPP,652529,728,700051,652529,500345,0.0,New 500/230 kV 2W Transformer,1.0,0.0,0.12,0,2000.0,2000.0,Y,2TF,,,,,,,652529
21,10652529,WATERTN3_652529,44.88,-97.04,p38,345.0,0.0,PQ,652_EI,"POINT(44.88,-97.04)",p38,SPP,SPP,SPP_North,WNC,SD,eastern,USA,northern-plains,SD_SPP,652529,729,700051,652529,500345,0.0,New 500/230 kV 2W Transformer,2.0,0.0,0.12,0,2000.0,2000.0,Y,2TF,,,,,,,652529
22,10532793,NEOSHO 7_532793,37.3,-95.11,p53,345.0,0.0,PQ,536_EI,"POINT(37.3,-95.11)",p53,SPP,SPP,SPP_South,WNC,KS,eastern,USA,northern-plains,KS,532793,494,700035,532793,500345,0.0,New 500/345kV 2W Transformer,1.0,0.0,0.12,0,2000.0,2000.0,Y,2TF,,,,,,,532793
23,10532793,NEOSHO 7_532793,37.3,-95.11,p53,345.0,0.0,PQ,536_EI,"POINT(37.3,-95.11)",p53,SPP,SPP,SPP_South,WNC,KS,eastern,USA,northern-plains,KS,532793,495,700035,532793,500345,0.0,New 500/345kV 2W Transformer,2.0,0.0,0.12,0,2000.0,2000.0,Y,2TF,,,,,,,532793
24,10636400,HILLS  3_636400,41.57,-91.54,p70,345.0,0.0,PQ,635_EI,"POINT(41.57,-91.54)",p70,MISO,MISO,MISO_North,WNC,IA,eastern,USA,corn-belt,IA,636400,356,700028,636400,500345,0.0,New 500/345kV 2W Transformer,1.0,0.0,0.12,0,2000.0,2000.0,Y,2TF,,,,,,,636400
25,10636400,HILLS  3_636400,41.57,-91.54,p70,345.0,0.0,PQ,635_EI,"POINT(41.57,-91.54)",p70,MISO,MISO,MISO_North,WNC,IA,eastern,USA,corn-belt,IA,636400,357,700028,636400,500345,0.0,New 500/345kV 2W Transformer,2.0,0.0,0.12,0,2000.0,2000.0,Y,2TF,,,,,,,636400
26,10694003,ARPIN B1_694003,44.57,-90.03,p76,345.0,0.0,PQ,694_EI,"POINT(44.57,-90.03)",p76,MISO,MISO,MISO_North,ENC,WI,eastern,USA,lake-states,WI,694003,720,700049,694003,500345,0.0,New 500/230 kV 2W Transformer,1.0,0.0,0.12,0,2000.0,2000.0,Y,2TF,,,,,,,694003
27,10694003,ARPIN B1_694003,44.57,-90.03,p76,345.0,0.0,PQ,694_EI,"POINT(44.57,-90.03)",p76,MISO,MISO,MISO_North,ENC,WI,eastern,USA,lake-states,WI,694003,721,700049,694003,500345,0.0,New 500/230 kV 2W Transformer,2.0,0.0,0.12,0,2000.0,2000.0,Y,2TF,,,,,,,694003
28,10313761,6BATNA_313761,38.13,-78.22,p99,230.0,0.0,PQ,345_EI,"POINT(38.13,-78.22)",p99,PJM,PJM,PJM_East,SA,VA,eastern,USA,appalachia,VA,313761,164,700006,313761,500230,0.0,New 500/230 kV 2W Transformer,1.0,0.0,0.12,0,2000.0,2000.0,Y,2TF,,,,,,,313761
29,10313761,6BATNA_313761,38.13,-78.22,p99,230.0,0.0,PQ,345_EI,"POINT(38.13,-78.22)",p99,PJM,PJM,PJM_East,SA,VA,eastern,USA,appalachia,VA,313761,165,700006,313761,500230,0.0,New 500/230 kV 2W Transformer,2.0,0.0,0.12,0,2000.0,2000.0,Y,2TF,,,,,,,313761
30,10324102,7BROWN NORTH_324102,37.79,-84.71,p109,345.0,0.0,PQ,363_EI,"POINT(37.79,-84.71)",p109,PJM,PJM,PJM_East,ESC,KY,eastern,USA,appalachia,KY_PJM,324102,411,700032,324102,500345,0.0,New 500/345kV 2W Transformer,1.0,0.0,0.12,0,2000.0,2000.0,Y,2TF,,,,,,,324102
31,10324102,7BROWN NORTH_324102,37.79,-84.71,p109,345.0,0.0,PQ,363_EI,"POINT(37.79,-84.71)",p109,PJM,PJM,PJM_East,ESC,KY,eastern,USA,appalachia,KY_PJM,324102,412,700032,324102,500345,0.0,New 500/345kV 2W Transformer,2.0,0.0,0.12,0,2000.0,2000.0,Y,2TF,,,,,,,324102
32,10515375,WWRDEHV7_515375,36.31,-99.37,p50,345.0,0.0,PQ,524_EI,"POINT(36.31,-99.37)",p50,SPP,SPP,SPP_South,WSC,OK,eastern,USA,southern-plains,OK,515375,297,700015,515375,500345,0.0,New 500/345kV 2W Transformer,1.0,0.0,0.12,0,2000.0,2000.0,Y,2TF,,,,,,,515375
33,10515375,WWRDEHV7_515375,36.31,-99.37,p50,345.0,0.0,PQ,524_EI,"POINT(36.31,-99.37)",p50,SPP,SPP,SPP_South,WSC,OK,eastern,USA,southern-plains,OK,515375,298,700015,515375,500345,0.0,New 500/345kV 2W Transformer,2.0,0.0,0.12,0,2000.0,2000.0,Y,2TF,,,,,,,515375
34,10532796,WICHITA7_532796,37.79,-97.52,p53,345.0,0.0,PQ,536_EI,"POINT(37.79,-97.52)",p53,SPP,SPP,SPP_South,WNC,KS,eastern,USA,northern-plains,KS,532796,328,700022,532796,500345,0.0,New 500/345kV 2W Transformer,1.0,0.0,0.12,0,2000.0,2000.0,Y,2TF,,,,,,,532796
35,10532796,WICHITA7_532796,37.79,-97.52,p53,345.0,0.0,PQ,536_EI,"POINT(37.79,-97.52)",p53,SPP,SPP,SPP_South,WNC,KS,eastern,USA,northern-plains,KS,532796,329,700022,532796,500345,0.0,New 500/345kV 2W Transformer,2.0,0.0,0.12,0,2000.0,2000.0,Y,2TF,,,,,,,532796
36,10532774,SWISVAL7_532774,38.84,-95.59,p53,345.0,0.0,PQ,536_EI,"POINT(38.84,-95.59)",p53,SPP,SPP,SPP_South,WNC,KS,eastern,USA,northern-plains,KS,532774,331,700023,532774,500345,0.0,New 500/345kV 2W Transformer,1.0,0.0,0.12,0,2000.0,2000.0,Y,2TF,,,,,,,532774
37,10532774,SWISVAL7_532774,38.84,-95.59,p53,345.0,0.0,PQ,536_EI,"POINT(38.84,-95.59)",p53,SPP,SPP,SPP_South,WNC,KS,eastern,USA,northern-plains,KS,532774,332,700023,532774,500345,0.0,New 500/345kV 2W Transformer,2.0,0.0,0.12,0,2000.0,2000.0,Y,2TF,,,,,,,532774
38,10243209,05ROCKPT_243209,37.93,-87.03,p107,765.0,0.0,PQ,205_EI,"POINT(37.93,-87.03)",p107,MISO,MISO,MISO_Central,ENC,IN,eastern,USA,corn-belt,IN,243209,253,700007,243209,765500,0.0,New 765/500 kV 2W Transformer,1.0,0.0,0.12,0,2000.0,2000.0,Y,2TF,,,,,,,243209
39,10243209,05ROCKPT_243209,37.93,-87.03,p107,765.0,0.0,PQ,205_EI,"POINT(37.93,-87.03)",p107,MISO,MISO,MISO_Central,ENC,IN,eastern,USA,corn-belt,IN,243209,254,700007,243209,765500,0.0,New 765/500 kV 2W Transformer,2.0,0.0,0.12,0,2000.0,2000.0,Y,2TF,,,,,,,243209
40,10532773,SUMMIT 7_532773,38.73,-97.54,p53,345.0,0.0,PQ,536_EI,"POINT(38.73,-97.54)",p53,SPP,SPP,SPP_South,WNC,KS,eastern,USA,northern-plains,KS,532773,646,700038,532773,500345,0.0,New 500/345kV 2W Transformer,1.0,0.0,0.12,0,2000.0,2000.0,Y,2TF,,,,,,,532773
41,10532773,SUMMIT 7_532773,38.73,-97.54,p53,345.0,0.0,PQ,536_EI,"POINT(38.73,-97.54)",p53,SPP,SPP,SPP_South,WNC,KS,eastern,USA,northern-plains,KS,532773,647,700038,532773,500345,0.0,New 500/345kV 2W Transformer,2.0,0.0,0.12,0,2000.0,2000.0,Y,2TF,,,,,,,532773
42,10699359,N APPLETON_699359,44.37,-88.35,p76,345.0,0.0,PQ,295_EI,"POINT(44.37,-88.35)",p76,MISO,MISO,MISO_North,ENC,WI,eastern,USA,lake-states,WI,699359,716,700048,699359,500345,0.0,New 500/230 kV 2W Transformer,1.0,0.0,0.12,0,2000.0,2000.0,Y,2TF,,,,,,,699359
43,10699359,N APPLETON_699359,44.37,-88.35,p76,345.0,0.0,PQ,295_EI,"POINT(44.37,-88.35)",p76,MISO,MISO,MISO_North,ENC,WI,eastern,USA,lake-states,WI,699359,717,700048,699359,500345,0.0,New 500/230 kV 2W Transformer,2.0,0.0,0.12,0,2000.0,2000.0,Y,2TF,,,,,,,699359
44,10232013,SILVER RUN_232013,39.12,-75.52,p125,230.0,0.0,PQ,225_EI,"POINT(39.12,-75.52)",p125,PJM,PJM,PJM_East,SA,DE,eastern,USA,northeast,DE,232013,686,700041,232013,500230,0.0,New 500/230 kV 2W Transformer,1.0,0.0,0.12,0,2000.0,2000.0,Y,2TF,,,,,,,232013
45,10232013,SILVER RUN_232013,39.12,-75.52,p125,230.0,0.0,PQ,225_EI,"POINT(39.12,-75.52)",p125,PJM,PJM,PJM_East,SA,DE,eastern,USA,northeast,DE,232013,687,700041,232013,500230,0.0,New 500/230 kV 2W Transformer,2.0,0.0,0.12,0,2000.0,2000.0,Y,2TF,,,,,,,232013
46,10530583,POSTROCK7_530583,38.93,-99.36,p53,345.0,0.0,PQ,531_EI,"POINT(38.93,-99.36)",p53,SPP,SPP,SPP_South,WNC,KS,eastern,USA,northern-plains,KS,530583,643,700037,530583,500345,0.0,New 500/345kV 2W Transformer,1.0,0.0,0.12,0,2000.0,2000.0,Y,2TF,,,,,,,530583
47,10530583,POSTROCK7_530583,38.93,-99.36,p53,345.0,0.0,PQ,531_EI,"POINT(38.93,-99.36)",p53,SPP,SPP,SPP_South,WNC,KS,eastern,USA,northern-plains,KS,530583,644,700037,530583,500345,0.0,New 500/345kV 2W Transformer,2.0,0.0,0.12,0,2000.0,2000.0,Y,2TF,,,,,,,530583
48,10270828,NELSON   ; B_270828,41.76,-89.61,p80,345.0,0.0,PQ,222_EI,"POINT(41.76,-89.61)",p80,PJM,PJM,PJM_West,ENC,IL,eastern,USA,corn-belt,IL_PJM,270828,360,700029,270828,500345,0.0,New 500/345kV 2W Transformer,1.0,0.0,0.12,0,2000.0,2000.0,Y,2TF,,,,,,,270828
49,10270828,NELSON   ; B_270828,41.76,-89.61,p80,345.0,0.0,PQ,222_EI,"POINT(41.76,-89.61)",p80,PJM,PJM,PJM_West,ENC,IL,eastern,USA,corn-belt,IL_PJM,270828,361,700029,270828,500345,0.0,New 500/345kV 2W Transformer,2.0,0.0,0.12,0,2000.0,2000.0,Y,2TF,,,,,,,270828
50,10514901,CIMARON7_514901,35.51,-97.79,p50,345.0,0.0,PQ,524_EI,"POINT(35.51,-97.79)",p50,SPP,SPP,SPP_South,WSC,OK,eastern,USA,southern-plains,OK,514901,293,700014,514901,500345,0.0,New 500/345kV 2W Transformer,1.0,0.0,0.12,0,2000.0,2000.0,Y,2TF,,,,,,,514901
51,10514901,CIMARON7_514901,35.51,-97.79,p50,345.0,0.0,PQ,524_EI,"POINT(35.51,-97.79)",p50,SPP,SPP,SPP_South,WSC,OK,eastern,USA,southern-plains,OK,514901,294,700014,514901,500345,0.0,New 500/345kV 2W Transformer,2.0,0.0,0.12,0,2000.0,2000.0,Y,2TF,,,,,,,514901
52,10135250,DUNKIRK_135250,42.49,-79.35,p127,230.0,0.0,PQ,102_EI,"POINT(42.49,-79.35)",p127,NPCC_NY,NYISO,NYISO_UP,MA,NY,eastern,USA,northeast,NY_UP,135250,83,700004,135250,345230,0.0,New 345/230 kV 2W Transformer,1.0,0.0,0.12,0,2000.0,2400.0,Y,2TF,,,,,,,135250
53,10135250,DUNKIRK_135250,42.49,-79.35,p127,230.0,0.0,PQ,102_EI,"POINT(42.49,-79.35)",p127,NPCC_NY,NYISO,NYISO_UP,MA,NY,eastern,USA,northeast,NY_UP,135250,84,700004,135250,345230,0.0,New 345/230 kV 2W Transformer,2.0,0.0,0.12,0,2000.0,2400.0,Y,2TF,,,,,,,135250
54,10541201,SIBLEY 7_541201,39.18,-94.18,p54,345.0,0.0,PQ,541_EI,"POINT(39.18,-94.18)",p54,SPP,SPP,SPP_South,WNC,MO,eastern,USA,corn-belt,MO_SPP,541201,335,700024,541201,500345,0.0,New 500/345kV 2W Transformer,1.0,0.0,0.12,0,2000.0,2000.0,Y,2TF,,,,,,,541201
55,10541201,SIBLEY 7_541201,39.18,-94.18,p54,345.0,0.0,PQ,541_EI,"POINT(39.18,-94.18)",p54,SPP,SPP,SPP_South,WNC,MO,eastern,USA,corn-belt,MO_SPP,541201,336,700024,541201,500345,0.0,New 500/345kV 2W Transformer,2.0,0.0,0.12,0,2000.0,2000.0,Y,2TF,,,,,,,541201
56,10515136,SUNNYSD7_515136,34.19,-97.24,p50,345.0,0.0,PQ,524_EI,"POINT(34.19,-97.24)",p50,SPP,SPP,SPP_South,WSC,OK,eastern,USA,southern-plains,OK,515136,272,700010,515136,500345,0.0,New 500/345kV 2W Transformer,1.0,0.0,0.12,0,2000.0,2000.0,Y,2TF,,,,,,,515136
57,10515136,SUNNYSD7_515136,34.19,-97.24,p50,345.0,0.0,PQ,524_EI,"POINT(34.19,-97.24)",p50,SPP,SPP,SPP_South,WSC,OK,eastern,USA,southern-plains,OK,515136,273,700010,515136,500345,0.0,New 500/345kV 2W Transformer,2.0,0.0,0.12,0,2000.0,2000.0,Y,2TF,,,,,,,515136
58,10523097,HITCHLAND  7_523097,36.5,-101.39,p48,345.0,0.0,PQ,526_EI,"POINT(36.5,-101.39)",p48,SPP,SPP,SPP_South,WSC,TX,eastern,USA,southern-plains,TX_SPP_N,523097,320,700020,523097,500345,0.0,New 500/345kV 2W Transformer,1.0,0.0,0.12,0,2000.0,2000.0,Y,2TF,,,,,,,523097
59,10523097,HITCHLAND  7_523097,36.5,-101.39,p48,345.0,0.0,PQ,526_EI,"POINT(36.5,-101.39)",p48,SPP,SPP,SPP_South,WSC,TX,eastern,USA,southern-plains,TX_SPP_N,523097,321,700020,523097,500345,0.0,New 500/345kV 2W Transformer,2.0,0.0,0.12,0,2000.0,2000.0,Y,2TF,,,,,,,523097
60,10344974,7LUTESVIL_344974,37.26,-89.84,p72,345.0,0.0,PQ,356_EI,"POINT(37.26,-89.84)",p72,MISO,MISO,MISO_Central,WNC,MO,eastern,USA,corn-belt,MO_MISO,344974,302,700016,344974,500345,0.0,New 500/345kV 2W Transformer,1.0,0.0,0.12,0,2000.0,2000.0,Y,2TF,,,,,,,344974
61,10344974,7LUTESVIL_344974,37.26,-89.84,p72,345.0,0.0,PQ,356_EI,"POINT(37.26,-89.84)",p72,MISO,MISO,MISO_Central,WNC,MO,eastern,USA,corn-belt,MO_MISO,344974,303,700016,344974,500345,0.0,New 500/345kV 2W Transformer,2.0,0.0,0.12,0,2000.0,2000.0,Y,2TF,,,,,,,344974
62,10345230,7MONTGMRY_345230,38.92,-91.46,p72,345.0,0.0,PQ,356_EI,"POINT(38.92,-91.46)",p72,MISO,MISO,MISO_Central,WNC,MO,eastern,USA,corn-belt,MO_MISO,345230,339,700034,345230,500345,0.0,New 500/345kV 2W Transformer,1.0,0.0,0.12,0,2000.0,2000.0,Y,2TF,,,,,,,345230
63,10345230,7MONTGMRY_345230,38.92,-91.46,p72,345.0,0.0,PQ,356_EI,"POINT(38.92,-91.46)",p72,MISO,MISO,MISO_Central,WNC,MO,eastern,USA,corn-belt,MO_MISO,345230,340,700034,345230,500345,0.0,New 500/345kV 2W Transformer,2.0,0.0,0.12,0,2000.0,2000.0,Y,2TF,,,,,,,345230
64,10232000,STEELE_232000,38.9,-75.81,p123,230.0,0.0,PQ,235_EI,"POINT(38.9,-75.81)",p123,PJM,PJM,PJM_East,SA,MD,eastern,USA,northeast,MD,232000,706,700046,232000,500230,0.0,New 500/230 kV 2W Transformer,1.0,0.0,0.12,0,2000.0,2000.0,Y,2TF,,,,,,,232000
65,10232000,STEELE_232000,38.9,-75.81,p123,230.0,0.0,PQ,235_EI,"POINT(38.9,-75.81)",p123,PJM,PJM,PJM_East,SA,MD,eastern,USA,northeast,MD,232000,707,700046,232000,500230,0.0,New 500/230 kV 2W Transformer,2.0,0.0,0.12,0,2000.0,2000.0,Y,2TF,,,,,,,232000
66,10635680,BONDURANT3_635680,41.67,-93.5,p70,345.0,0.0,PQ,635_EI,"POINT(41.67,-93.5)",p70,MISO,MISO,MISO_North,WNC,IA,eastern,USA,corn-belt,IA,635680,352,700027,635680,500345,0.0,New 500/345kV 2W Transformer,1.0,0.0,0.12,0,2000.0,2000.0,Y,2TF,,,,,,,635680
67,10635680,BONDURANT3_635680,41.67,-93.5,p70,345.0,0.0,PQ,635_EI,"POINT(41.67,-93.5)",p70,MISO,MISO,MISO_North,WNC,IA,eastern,USA,corn-belt,IA,635680,353,700027,635680,500345,0.0,New 500/345kV 2W Transformer,2.0,0.0,0.12,0,2000.0,2000.0,Y,2TF,,,,,,,635680
68,10324106,7HARDIN CO_324106,37.66855,-85.90213,p109,345.0,0.0,PQ,363_EI,"POINT(37.66855,-85.90213)",p109,PJM,PJM,PJM_East,ESC,KY,eastern,USA,appalachia,KY_PJM,324106,415,700033,324106,500345,0.0,New 500/345kV 2W Transformer,1.0,0.0,0.12,0,2000.0,2000.0,Y,2TF,,,,,,,324106
69,10324106,7HARDIN CO_324106,37.66855,-85.90213,p109,345.0,0.0,PQ,363_EI,"POINT(37.66855,-85.90213)",p109,PJM,PJM,PJM_East,ESC,KY,eastern,USA,appalachia,KY_PJM,324106,416,700033,324106,500345,0.0,New 500/345kV 2W Transformer,2.0,0.0,0.12,0,2000.0,2000.0,Y,2TF,,,,,,,324106
70,10640227,HOSKINS4_640227,42.08,-97.35,p40,230.0,0.0,PQ,640_EI,"POINT(42.08,-97.35)",p40,SPP,SPP,SPP_North,WNC,NE,eastern,USA,northern-plains,NE,640227,348,700026,640227,500345,0.0,New 500/345kV 2W Transformer,1.0,0.0,0.12,0,2000.0,2000.0,Y,2TF,,,,,,,640227
71,10640227,HOSKINS4_640227,42.08,-97.35,p40,230.0,0.0,PQ,640_EI,"POINT(42.08,-97.35)",p40,SPP,SPP,SPP_North,WNC,NE,eastern,USA,northern-plains,NE,640227,349,700026,640227,500345,0.0,New 500/345kV 2W Transformer,2.0,0.0,0.12,0,2000.0,2000.0,Y,2TF,,,,,,,640227
72,10511468,L.E.S.-7_511468,34.6,-98.31,p50,345.0,0.0,PQ,520_EI,"POINT(34.6,-98.31)",p50,SPP,SPP,SPP_South,WSC,OK,eastern,USA,southern-plains,OK,511468,276,700011,511468,500345,0.0,New 500/345kV 2W Transformer,1.0,0.0,0.12,0,2000.0,2000.0,Y,2TF,,,,,,,511468
73,10511468,L.E.S.-7_511468,34.6,-98.31,p50,345.0,0.0,PQ,520_EI,"POINT(34.6,-98.31)",p50,SPP,SPP,SPP_South,WSC,OK,eastern,USA,southern-plains,OK,511468,277,700011,511468,500345,0.0,New 500/345kV 2W Transformer,2.0,0.0,0.12,0,2000.0,2000.0,Y,2TF,,,,,,,511468
74,10300041,7FRANKS_300041,37.95,-92.03,p73,345.0,0.0,PQ,330_EI,"POINT(37.95,-92.03)",p73,MISO,MISO,MISO_Central,WNC,MO,eastern,USA,corn-belt,MO_MISO,300041,311,700018,300041,500345,0.0,New 500/345kV 2W Transformer,1.0,0.0,0.12,0,2000.0,2000.0,Y,2TF,,,,,,,300041
75,10300041,7FRANKS_300041,37.95,-92.03,p73,345.0,0.0,PQ,330_EI,"POINT(37.95,-92.03)",p73,MISO,MISO,MISO_Central,WNC,MO,eastern,USA,corn-belt,MO_MISO,300041,312,700018,300041,500345,0.0,New 500/345kV 2W Transformer,2.0,0.0,0.12,0,2000.0,2000.0,Y,2TF,,,,,,,300041
76,10510911,VALIANT7_510911,33.99,-95.05,p50,345.0,0.0,PQ,520_EI,"POINT(33.99,-95.05)",p50,SPP,SPP,SPP_South,WSC,OK,eastern,USA,southern-plains,OK,510911,268,700009,510911,500345,0.0,New 500/345kV 2W Transformer,1.0,0.0,0.12,0,2000.0,2000.0,Y,2TF,,,,,,,510911
77,10510911,VALIANT7_510911,33.99,-95.05,p50,345.0,0.0,PQ,520_EI,"POINT(33.99,-95.05)",p50,SPP,SPP,SPP_South,WSC,OK,eastern,USA,southern-plains,OK,510911,269,700009,510911,500345,0.0,New 500/345kV 2W Transformer,2.0,0.0,0.12,0,2000.0,2000.0,Y,2TF,,,,,,,510911
78,10402945,TWINRIVRS SW_402945,30.38,-83.18,p101,230.0,0.0,PQ,402_EI,"POINT(30.38,-83.18)",p101,SERC,FRCC,FRCC,SA,FL,eastern,USA,southeast,FL_FRCC,402945,2,700001,402945,500230,0.0,New 500/230 kV 2W Transformer,1.0,0.0,0.12,0,2000.0,2000.0,Y,2TF,,,,,,,402945
79,10402945,TWINRIVRS SW_402945,30.38,-83.18,p101,230.0,0.0,PQ,402_EI,"POINT(30.38,-83.18)",p101,SERC,FRCC,FRCC,SA,FL,eastern,USA,southeast,FL_FRCC,402945,3,700001,402945,500230,0.0,New 500/230 kV 2W Transformer,2.0,0.0,0.12,0,2000.0,2000.0,Y,2TF,,,,,,,402945
80,10409050,PEBBLEDALE_409050,27.84,-81.94,p101,230.0,0.0,PQ,416_EI,"POINT(27.84,-81.94)",p101,SERC,FRCC,FRCC,SA,FL,eastern,USA,southeast,FL_FRCC,409050,18,700002,409050,500230,0.0,New 500/230 kV 2W Transformer,1.0,0.0,0.12,0,2000.0,2000.0,Y,2TF,,,,,,,409050
81,10409050,PEBBLEDALE_409050,27.84,-81.94,p101,230.0,0.0,PQ,416_EI,"POINT(27.84,-81.94)",p101,SERC,FRCC,FRCC,SA,FL,eastern,USA,southeast,FL_FRCC,409050,19,700002,409050,500230,0.0,New 500/230 kV 2W Transformer,2.0,0.0,0.12,0,2000.0,2000.0,Y,2TF,,,,,,,409050
82,10515224,MUSKOGE7_515224,35.76,-95.3,p51,345.0,0.0,PQ,524_EI,"POINT(35.76,-95.3)",p51,SPP,SPP,SPP_South,WSC,OK,eastern,USA,southern-plains,OK,515224,290,700040,515224,500345,0.0,New 500/345kV 2W Transformer,1.0,0.0,0.12,0,2000.0,2000.0,Y,2TF,,,,,,,515224
83,10515224,MUSKOGE7_515224,35.76,-95.3,p51,345.0,0.0,PQ,524_EI,"POINT(35.76,-95.3)",p51,SPP,SPP,SPP_South,WSC,OK,eastern,USA,southern-plains,OK,515224,291,700040,515224,500345,0.0,New 500/345kV 2W Transformer,2.0,0.0,0.12,0,2000.0,2000.0,Y,2TF,,,,,,,515224
84,10657791,CENTER 3_657791,47.08,-101.2,p36,345.0,0.0,PQ,620_EI,"POINT(47.08,-101.2)",p36,SPP,SPP,SPP_North,WNC,ND,eastern,USA,northern-plains,ND_SPP,657791,732,700052,657791,500345,0.0,New 500/230 kV 2W Transformer,1.0,0.0,0.12,0,2000.0,2000.0,Y,2TF,,,,,,,657791
85,10657791,CENTER 3_657791,47.08,-101.2,p36,345.0,0.0,PQ,620_EI,"POINT(47.08,-101.2)",p36,SPP,SPP,SPP_North,WNC,ND,eastern,USA,northern-plains,ND_SPP,657791,733,700052,657791,500345,0.0,New 500/230 kV 2W Transformer,2.0,0.0,0.12,0,2000.0,2000.0,Y,2TF,,,,,,,657791
86,10640200,GR ISLD4_640200,40.91,-98.26,p40,230.0,0.0,PQ,640_EI,"POINT(40.91,-98.26)",p40,SPP,SPP,SPP_North,WNC,NE,eastern,USA,northern-plains,NE,640200,345,700025,640200,500345,0.0,New 500/345kV 2W Transformer,1.0,0.0,0.12,0,2000.0,2000.0,Y,2TF,,,,,,,640200
87,10640200,GR ISLD4_640200,40.91,-98.26,p40,230.0,0.0,PQ,640_EI,"POINT(40.91,-98.26)",p40,SPP,SPP,SPP_North,WNC,NE,eastern,USA,northern-plains,NE,640200,346,700025,640200,500345,0.0,New 500/345kV 2W Transformer,2.0,0.0,0.12,0,2000.0,2000.0,Y,2TF,,,,,,,640200
88,10232007,PINEY GR_232007,38.3,-75.5,p123,230.0,0.0,PQ,235_EI,"POINT(38.3,-75.5)",p123,PJM,PJM,PJM_East,SA,MD,eastern,USA,northeast,MD,232007,698,700044,232007,500230,0.0,New 500/230 kV 2W Transformer,1.0,0.0,0.12,0,2000.0,2000.0,Y,2TF,,,,,,,232007
89,10232007,PINEY GR_232007,38.3,-75.5,p123,230.0,0.0,PQ,235_EI,"POINT(38.3,-75.5)",p123,PJM,PJM,PJM_East,SA,MD,eastern,USA,northeast,MD,232007,699,700044,232007,500230,0.0,New 500/230 kV 2W Transformer,2.0,0.0,0.12,0,2000.0,2000.0,Y,2TF,,,,,,,232007
90,10699247,ARCADIAN 345_699247,43.01,-88.17,p79,345.0,0.0,PQ,295_EI,"POINT(43.01,-88.17)",p79,MISO,MISO,MISO_North,ENC,WI,eastern,USA,lake-states,WI,699247,713,700047,699247,500345,0.0,New 500/230 kV 2W Transformer,1.0,0.0,0.12,0,2000.0,2000.0,Y,2TF,,,,,,,699247
91,10699247,ARCADIAN 345_699247,43.01,-88.17,p79,345.0,0.0,PQ,295_EI,"POINT(43.01,-88.17)",p79,MISO,MISO,MISO_North,ENC,WI,eastern,USA,lake-states,WI,699247,714,700047,699247,500345,0.0,New 500/230 kV 2W Transformer,2.0,0.0,0.12,0,2000.0,2000.0,Y,2TF,,,,,,,699247
92,10232004,MILF_230_232004,38.88,-75.4,p125,230.0,0.0,PQ,235_EI,"POINT(38.88,-75.4)",p125,PJM,PJM,PJM_East,SA,DE,eastern,USA,northeast,DE,232004,690,700042,232004,500230,0.0,New 500/230 kV 2W Transformer,1.0,0.0,0.12,0,2000.0,2000.0,Y,2TF,,,,,,,232004
93,10232004,MILF_230_232004,38.88,-75.4,p125,230.0,0.0,PQ,235_EI,"POINT(38.88,-75.4)",p125,PJM,PJM,PJM_East,SA,DE,eastern,USA,northeast,DE,232004,691,700042,232004,500230,0.0,New 500/230 kV 2W Transformer,2.0,0.0,0.12,0,2000.0,2000.0,Y,2TF,,,,,,,232004
94,10508359,WELSH  7_508359,33.05538,-94.84028,p57,345.0,0.0,PQ,520_EI,"POINT(33.05538,-94.84028)",p57,SPP,SPP,SPP_South,WSC,TX,eastern,USA,southern-plains,TX_SPP_E,508359,263,700008,508359,500345,0.0,New 500/345kV 2W Transformer,1.0,0.0,0.12,0,2000.0,2000.0,Y,2TF,,,,,,,508359
95,10508359,WELSH  7_508359,33.05538,-94.84028,p57,345.0,0.0,PQ,520_EI,"POINT(33.05538,-94.84028)",p57,SPP,SPP,SPP_South,WSC,TX,eastern,USA,southern-plains,TX_SPP_E,508359,264,700008,508359,500345,0.0,New 500/345kV 2W Transformer,2.0,0.0,0.12,0,2000.0,2000.0,Y,2TF,,,,,,,508359
96,10300048,7STFRAN_300048,36.59,-90.18,p84,345.0,0.0,PQ,330_EI,"POINT(36.59,-90.18)",p84,MISO,MISO,MISO_Central,WNC,MO,eastern,USA,corn-belt,MO_MISO,300048,307,700017,300048,500345,0.0,New 500/345kV 2W Transformer,1.0,0.0,0.12,0,2000.0,2000.0,Y,2TF,,,,,,,300048
97,10300048,7STFRAN_300048,36.59,-90.18,p84,345.0,0.0,PQ,330_EI,"POINT(36.59,-90.18)",p84,MISO,MISO,MISO_Central,WNC,MO,eastern,USA,corn-belt,MO_MISO,300048,308,700017,300048,500345,0.0,New 500/345kV 2W Transformer,2.0,0.0,0.12,0,2000.0,2000.0,Y,2TF,,,,,,,300048
98,30001074,WINKSS_8    -1074,31.763728,-103.145491,,138.0,0.0,PQ,1074_ERCOT,"POINT(31.763728,-103.145491)",p62,ERCOT,ERCOT,ERCOT_W,WSC,TX,texas,USA,southern-plains,TX_W_ERCOT,1074,2,700001,1074,345138,0.0,New 345/138 kV 2W Transformer,1.0,0.0,0.12,0,2000.0,2000.0,Y,2TF,,,,,,,1074
99,30001074,WINKSS_8    -1074,31.763728,-103.145491,,138.0,0.0,PQ,1074_ERCOT,"POINT(31.763728,-103.145491)",p62,ERCOT,ERCOT,ERCOT_W,WSC,TX,texas,USA,southern-plains,TX_W_ERCOT,1074,3,700001,1074,345138,0.0,New 345/138 kV 2W Transformer,2.0,0.0,0.12,0,2000.0,2000.0,Y,2TF,,,,,,,1074
100,30001104,SANDHILL_8  -1104,31.529458,-102.672152,,138.0,0.005240634,PQ,1104_ERCOT,"POINT(31.529458,-102.672152)",p62,ERCOT,ERCOT,ERCOT_W,WSC,TX,texas,USA,southern-plains,TX_W_ERCOT,1104,5,700002,1104,345138,0.0,New 345/138 kV 2W Transformer,1.0,0.0,0.12,0,2000.0,2000.0,Y,2TF,,,,,,,1104
101,30001104,SANDHILL_8  -1104,31.529458,-102.672152,,138.0,0.005240634,PQ,1104_ERCOT,"POINT(31.529458,-102.672152)",p62,ERCOT,ERCOT,ERCOT_W,WSC,TX,texas,USA,southern-plains,TX_W_ERCOT,1104,6,700002,1104,345138,0.0,New 345/138 kV 2W Transformer,2.0,0.0,0.12,0,2000.0,2000.0,Y,2TF,,,,,,,1104
102,30001469,SUNSETSW_8  -1469,33.429051,-97.838746,,138.0,0.0,PQ,1469_ERCOT,"POINT(33.429051,-97.838746)",p63,ERCOT,ERCOT,ERCOT_N,WSC,TX,texas,USA,southern-plains,TX_N_ERCOT,1469,255,700033,1469,345138,0.0,New 345/138 kV 2W Transformer,1.0,0.0,0.12,0,2000.0,2000.0,Y,2TF,,,,,,,1469
103,30001469,SUNSETSW_8  -1469,33.429051,-97.838746,,138.0,0.0,PQ,1469_ERCOT,"POINT(33.429051,-97.838746)",p63,ERCOT,ERCOT,ERCOT_N,WSC,TX,texas,USA,southern-plains,TX_N_ERCOT,1469,256,700033,1469,345138,0.0,New 345/138 kV 2W Transformer,2.0,0.0,0.12,0,2000.0,2000.0,Y,2TF,,,,,,,1469
104,30005200,HELOTES     -5200,29.548793,-98.681926,,138.0,0.00888661,PQ,5200_ERCOT,"POINT(29.548793,-98.681926)",p65,ERCOT,ERCOT,ERCOT_S,WSC,TX,texas,USA,southern-plains,TX_S_ERCOT,5200,188,700027,5200,345138,0.0,New 345/138 kV 2W Transformer,1.0,0.0,0.12,0,2000.0,2000.0,Y,2TF,,,,,,,5200
105,30005200,HELOTES     -5200,29.548793,-98.681926,,138.0,0.00888661,PQ,5200_ERCOT,"POINT(29.548793,-98.681926)",p65,ERCOT,ERCOT,ERCOT_S,WSC,TX,texas,USA,southern-plains,TX_S_ERCOT,5200,189,700027,5200,345138,0.0,New 345/138 kV 2W Transformer,2.0,0.0,0.12,0,2000.0,2000.0,Y,2TF,,,,,,,5200
106,30005502,RAYBURN8    -5502,28.893031,-97.133047,,138.0,0.0,PQ,5502_ERCOT,"POINT(28.893031,-97.133047)",p65,ERCOT,ERCOT,ERCOT_S,WSC,TX,texas,USA,southern-plains,TX_S_ERCOT,5502,112,700017,5502,345138,0.0,New 345/138 kV 2W Transformer,1.0,0.0,0.12,0,2000.0,2000.0,Y,2TF,,,,,,,5502
107,30005502,RAYBURN8    -5502,28.893031,-97.133047,,138.0,0.0,PQ,5502_ERCOT,"POINT(28.893031,-97.133047)",p65,ERCOT,ERCOT,ERCOT_S,WSC,TX,texas,USA,southern-plains,TX_S_ERCOT,5502,113,700017,5502,345138,0.0,New 345/138 kV 2W Transformer,2.0,0.0,0.12,0,2000.0,2000.0,Y,2TF,,,,,,,5502
108,30005728,CHOATESUB8  -5728,28.79802,-97.76138,,138.0,0.0,PQ,5728_ERCOT,"POINT(28.79802,-97.76138)",p65,ERCOT,ERCOT,ERCOT_S,WSC,TX,texas,USA,southern-plains,TX_S_ERCOT,5728,107,700016,5728,345138,0.0,New 345/138 kV 2W Transformer,1.0,0.0,0.12,0,2000.0,2000.0,Y,2TF,,,,,,,5728
109,30005728,CHOATESUB8  -5728,28.79802,-97.76138,,138.0,0.0,PQ,5728_ERCOT,"POINT(28.79802,-97.76138)",p65,ERCOT,ERCOT,ERCOT_S,WSC,TX,texas,USA,southern-plains,TX_S_ERCOT,5728,108,700016,5728,345138,0.0,New 345/138 kV 2W Transformer,2.0,0.0,0.12,0,2000.0,2000.0,Y,2TF,,,,,,,5728
110,30005827,MOORESW8    -5827,29.077257,-99.045925,,138.0,0.0,PQ,5827_ERCOT,"POINT(29.077257,-99.045925)",p65,ERCOT,ERCOT,ERCOT_S,WSC,TX,texas,USA,southern-plains,TX_S_ERCOT,5827,75,700013,5827,345138,0.0,New 345/138 kV 2W Transformer,1.0,0.0,0.12,0,2000.0,2000.0,Y,2TF,,,,,,,5827
111,30005827,MOORESW8    -5827,29.077257,-99.045925,,138.0,0.0,PQ,5827_ERCOT,"POINT(29.077257,-99.045925)",p65,ERCOT,ERCOT,ERCOT_S,WSC,TX,texas,USA,southern-plains,TX_S_ERCOT,5827,76,700013,5827,345138,0.0,New 345/138 kV 2W Transformer,2.0,0.0,0.12,0,2000.0,2000.0,Y,2TF,,,,,,,5827
112,30006365,YELWJCKT4B  -6365,30.932036,-99.785554,,138.0,0.0,PQ,6365_ERCOT,"POINT(30.932036,-99.785554)",p64,ERCOT,ERCOT,ERCOT_S,WSC,TX,texas,USA,southern-plains,TX_S_ERCOT,6365,199,700029,6365,345138,0.0,New 345/138 kV 2W Transformer,1.0,0.0,0.12,0,2000.0,2000.0,Y,2TF,,,,,,,6365
113,30006365,YELWJCKT4B  -6365,30.932036,-99.785554,,138.0,0.0,PQ,6365_ERCOT,"POINT(30.932036,-99.785554)",p64,ERCOT,ERCOT,ERCOT_S,WSC,TX,texas,USA,southern-plains,TX_S_ERCOT,6365,200,700029,6365,345138,0.0,New 345/138 kV 2W Transformer,2.0,0.0,0.12,0,2000.0,2000.0,Y,2TF,,,,,,,6365
114,30006390,FIREROCK4A  -6390,31.77602,-99.25037,,138.0,0.0,PQ,6390_ERCOT,"POINT(31.77602,-99.25037)",p61,ERCOT,ERCOT,ERCOT_W,WSC,TX,texas,USA,southern-plains,TX_W_ERCOT,6390,204,700030,76390,345138,0.0,New 345/138 kV 2W Transformer,1.0,0.0,0.12,0,2000.0,2000.0,Y,2TF,,,,,,,6390
115,30006390,FIREROCK4A  -6390,31.77602,-99.25037,,138.0,0.0,PQ,6390_ERCOT,"POINT(31.77602,-99.25037)",p61,ERCOT,ERCOT,ERCOT_W,WSC,TX,texas,USA,southern-plains,TX_W_ERCOT,6390,205,700030,76390,345138,0.0,New 345/138 kV 2W Transformer,2.0,0.0,0.12,0,2000.0,2000.0,Y,2TF,,,,,,,6390
116,30076390,L_FORTMA8_1N-76390,30.738315,-99.2323,,138.0,0.0,PQ,76390_ERCOT,"POINT(30.738315,-99.2323)",p64,ERCOT,ERCOT,ERCOT_S,WSC,TX,texas,USA,southern-plains,TX_S_ERCOT,6390,204,700030,76390,345138,0.0,New 345/138 kV 2W Transformer,1.0,0.0,0.12,0,2000.0,2000.0,Y,2TF,,,,,,,6390
117,30076390,L_FORTMA8_1N-76390,30.738315,-99.2323,,138.0,0.0,PQ,76390_ERCOT,"POINT(30.738315,-99.2323)",p64,ERCOT,ERCOT,ERCOT_S,WSC,TX,texas,USA,southern-plains,TX_S_ERCOT,6390,205,700030,76390,345138,0.0,New 345/138 kV 2W Transformer,2.0,0.0,0.12,0,2000.0,2000.0,Y,2TF,,,,,,,6390
118,30006480,SAPS4A      -6480,31.395745,-100.493373,,138.0,0.0,PQ,6480_ERCOT,"POINT(31.395745,-100.493373)",p61,ERCOT,ERCOT,ERCOT_W,WSC,TX,texas,USA,southern-plains,TX_W_ERCOT,6480,194,700028,6480,345138,0.0,New 345/138 kV 2W Transformer,1.0,0.0,0.12,0,2000.0,2000.0,Y,2TF,,,,,,,6480
119,30006480,SAPS4A      -6480,31.395745,-100.493373,,138.0,0.0,PQ,6480_ERCOT,"POINT(31.395745,-100.493373)",p61,ERCOT,ERCOT,ERCOT_W,WSC,TX,texas,USA,southern-plains,TX_W_ERCOT,6480,195,700028,6480,345138,0.0,New 345/138 kV 2W Transformer,2.0,0.0,0.12,0,2000.0,2000.0,Y,2TF,,,,,,,6480
120,30006515,SONR4A      -6515,30.568055,-100.65608,,138.0,0.004654631,PQ,6515_ERCOT,"POINT(30.568055,-100.65608)",p61,ERCOT,ERCOT,ERCOT_W,WSC,TX,texas,USA,southern-plains,TX_W_ERCOT,6515,36,700007,6515,345138,0.0,New 345/138 kV 2W Transformer,1.0,0.0,0.12,0,2000.0,2000.0,Y,2TF,,,,,,,6515
121,30006515,SONR4A      -6515,30.568055,-100.65608,,138.0,0.004654631,PQ,6515_ERCOT,"POINT(30.568055,-100.65608)",p61,ERCOT,ERCOT,ERCOT_W,WSC,TX,texas,USA,southern-plains,TX_W_ERCOT,6515,37,700007,6515,345138,0.0,New 345/138 kV 2W Transformer,2.0,0.0,0.12,0,2000.0,2000.0,Y,2TF,,,,,,,6515
122,30006535,BGLK4A      -6535,31.185681,-101.461981,,138.0,0.005983278,PQ,6535_ERCOT,"POINT(31.185681,-101.461981)",p62,ERCOT,ERCOT,ERCOT_W,WSC,TX,texas,USA,southern-plains,TX_W_ERCOT,6535,48,700009,6535,345138,0.0,New 345/138 kV 2W Transformer,1.0,0.0,0.12,0,2000.0,2000.0,Y,2TF,,,,,,,6535
123,30006535,BGLK4A      -6535,31.185681,-101.461981,,138.0,0.005983278,PQ,6535_ERCOT,"POINT(31.185681,-101.461981)",p62,ERCOT,ERCOT,ERCOT_W,WSC,TX,texas,USA,southern-plains,TX_W_ERCOT,6535,49,700009,6535,345138,0.0,New 345/138 kV 2W Transformer,2.0,0.0,0.12,0,2000.0,2000.0,Y,2TF,,,,,,,6535
124,30006562,FDRAN4A     -6562,30.708535,-101.143559,,138.0,0.0,PQ,6562_ERCOT,"POINT(30.708535,-101.143559)",p61,ERCOT,ERCOT,ERCOT_W,WSC,TX,texas,USA,southern-plains,TX_W_ERCOT,6562,31,700006,6562,345138,0.0,New 345/138 kV 2W Transformer,1.0,0.0,0.12,0,2000.0,2000.0,Y,2TF,,,,,,,6562
125,30006562,FDRAN4A     -6562,30.708535,-101.143559,,138.0,0.0,PQ,6562_ERCOT,"POINT(30.708535,-101.143559)",p61,ERCOT,ERCOT,ERCOT_W,WSC,TX,texas,USA,southern-plains,TX_W_ERCOT,6562,32,700006,6562,345138,0.0,New 345/138 kV 2W Transformer,2.0,0.0,0.12,0,2000.0,2000.0,Y,2TF,,,,,,,6562
126,30006601,RIOP4A      -6601,31.085441,-102.366479,,138.0,0.0,PQ,6601_ERCOT,"POINT(31.085441,-102.366479)",p61,ERCOT,ERCOT,ERCOT_W,WSC,TX,texas,USA,southern-plains,TX_W_ERCOT,6601,56,700010,6601,345138,0.0,New 345/138 kV 2W Transformer,1.0,0.0,0.12,0,2000.0,2000.0,Y,2TF,,,,,,,6601
127,30006601,RIOP4A      -6601,31.085441,-102.366479,,138.0,0.0,PQ,6601_ERCOT,"POINT(31.085441,-102.366479)",p61,ERCOT,ERCOT,ERCOT_W,WSC,TX,texas,USA,southern-plains,TX_W_ERCOT,6601,57,700010,6601,345138,0.0,New 345/138 kV 2W Transformer,2.0,0.0,0.12,0,2000.0,2000.0,Y,2TF,,,,,,,6601
128,30006655,BARL4A      -6655,30.947338,-103.365523,,138.0,0.0,PQ,6655_ERCOT,"POINT(30.947338,-103.365523)",p61,ERCOT,ERCOT,ERCOT_W,WSC,TX,texas,USA,southern-plains,TX_W_ERCOT,6655,12,700003,6655,345138,0.0,New 345/138 kV 2W Transformer,1.0,0.0,0.12,0,2000.0,2000.0,Y,2TF,,,,,,,6655
129,30006655,BARL4A      -6655,30.947338,-103.365523,,138.0,0.0,PQ,6655_ERCOT,"POINT(30.947338,-103.365523)",p61,ERCOT,ERCOT,ERCOT_W,WSC,TX,texas,USA,southern-plains,TX_W_ERCOT,6655,13,700003,6655,345138,0.0,New 345/138 kV 2W Transformer,2.0,0.0,0.12,0,2000.0,2000.0,Y,2TF,,,,,,,6655
130,30006671,TOMBSTNE4A  -6671,31.002533,-102.679222,,138.0,0.0,PQ,6671_ERCOT,"POINT(31.002533,-102.679222)",p61,ERCOT,ERCOT,ERCOT_W,WSC,TX,texas,USA,southern-plains,TX_W_ERCOT,6671,17,700004,6671,345138,0.0,New 345/138 kV 2W Transformer,1.0,0.0,0.12,0,2000.0,2000.0,Y,2TF,,,,,,,6671
131,30006671,TOMBSTNE4A  -6671,31.002533,-102.679222,,138.0,0.0,PQ,6671_ERCOT,"POINT(31.002533,-102.679222)",p61,ERCOT,ERCOT,ERCOT_W,WSC,TX,texas,USA,southern-plains,TX_W_ERCOT,6671,18,700004,6671,345138,0.0,New 345/138 kV 2W Transformer,2.0,0.0,0.12,0,2000.0,2000.0,Y,2TF,,,,,,,6671
132,30007126,L_FERGUS8_1Y-7126,30.555542,-98.371086,,138.0,0.0,PQ,7126_ERCOT,"POINT(30.555542,-98.371086)",p64,ERCOT,ERCOT,ERCOT_S,WSC,TX,texas,USA,southern-plains,TX_S_ERCOT,7126,211,700031,7126,345138,0.0,New 345/138 kV 2W Transformer,1.0,0.0,0.12,0,2000.0,2000.0,Y,2TF,,,,,,,7126
133,30007126,L_FERGUS8_1Y-7126,30.555542,-98.371086,,138.0,0.0,PQ,7126_ERCOT,"POINT(30.555542,-98.371086)",p64,ERCOT,ERCOT,ERCOT_S,WSC,TX,texas,USA,southern-plains,TX_S_ERCOT,7126,212,700031,7126,345138,0.0,New 345/138 kV 2W Transformer,2.0,0.0,0.12,0,2000.0,2000.0,Y,2TF,,,,,,,7126
134,30007356,L_MARSFO8_1Y-7356,30.390025,-97.907519,,138.0,0.0,PQ,7356_ERCOT,"POINT(30.390025,-97.907519)",p64,ERCOT,ERCOT,ERCOT_S,WSC,TX,texas,USA,southern-plains,TX_S_ERCOT,7356,228,700032,7356,345138,0.0,New 345/138 kV 2W Transformer,1.0,0.0,0.12,0,2000.0,2000.0,Y,2TF,,,,,,,7356
135,30007356,L_MARSFO8_1Y-7356,30.390025,-97.907519,,138.0,0.0,PQ,7356_ERCOT,"POINT(30.390025,-97.907519)",p64,ERCOT,ERCOT,ERCOT_S,WSC,TX,texas,USA,southern-plains,TX_S_ERCOT,7356,229,700032,7356,345138,0.0,New 345/138 kV 2W Transformer,2.0,0.0,0.12,0,2000.0,2000.0,Y,2TF,,,,,,,7356
136,30008125,LOLITA4A    -8125,28.851783,-96.557448,,138.0,7.43e-05,PQ,8125_ERCOT,"POINT(28.851783,-96.557448)",p65,ERCOT,ERCOT,ERCOT_S,WSC,TX,texas,USA,southern-plains,TX_S_ERCOT,8125,129,700020,8125,345138,0.0,New 345/138 kV 2W Transformer,1.0,0.0,0.12,0,2000.0,2000.0,Y,2TF,,,,,,,8125
137,30008125,LOLITA4A    -8125,28.851783,-96.557448,,138.0,7.43e-05,PQ,8125_ERCOT,"POINT(28.851783,-96.557448)",p65,ERCOT,ERCOT,ERCOT_S,WSC,TX,texas,USA,southern-plains,TX_S_ERCOT,8125,130,700020,8125,345138,0.0,New 345/138 kV 2W Transformer,2.0,0.0,0.12,0,2000.0,2000.0,Y,2TF,,,,,,,8125
138,30008162,COLETO4A    -8162,28.717549,-97.212866,,138.0,0.0,PQ,8162_ERCOT,"POINT(28.717549,-97.212866)",p65,ERCOT,ERCOT,ERCOT_S,WSC,TX,texas,USA,southern-plains,TX_S_ERCOT,8162,122,700019,8162,345138,0.0,New 345/138 kV 2W Transformer,1.0,0.0,0.12,0,2000.0,2000.0,Y,2TF,,,,,,,8162
139,30008162,COLETO4A    -8162,28.717549,-97.212866,,138.0,0.0,PQ,8162_ERCOT,"POINT(28.717549,-97.212866)",p65,ERCOT,ERCOT,ERCOT_S,WSC,TX,texas,USA,southern-plains,TX_S_ERCOT,8162,123,700019,8162,345138,0.0,New 345/138 kV 2W Transformer,2.0,0.0,0.12,0,2000.0,2000.0,Y,2TF,,,,,,,8162
140,30008172,VICTORIA4A  -8172,28.787127,-97.011236,,138.0,0.0,PQ,8172_ERCOT,"POINT(28.787127,-97.011236)",p65,ERCOT,ERCOT,ERCOT_S,WSC,TX,texas,USA,southern-plains,TX_S_ERCOT,8172,117,700018,8172,345138,0.0,New 345/138 kV 2W Transformer,1.0,0.0,0.12,0,2000.0,2000.0,Y,2TF,,,,,,,8172
141,30008172,VICTORIA4A  -8172,28.787127,-97.011236,,138.0,0.0,PQ,8172_ERCOT,"POINT(28.787127,-97.011236)",p65,ERCOT,ERCOT,ERCOT_S,WSC,TX,texas,USA,southern-plains,TX_S_ERCOT,8172,118,700018,8172,345138,0.0,New 345/138 kV 2W Transformer,2.0,0.0,0.12,0,2000.0,2000.0,Y,2TF,,,,,,,8172
142,30008193,LYSSY4A     -8193,28.94446,-98.17402,,138.0,0.0,PQ,8193_ERCOT,"POINT(28.94446,-98.17402)",p65,ERCOT,ERCOT,ERCOT_S,WSC,TX,texas,USA,southern-plains,TX_S_ERCOT,8193,97,700015,8193,345138,0.0,New 345/138 kV 2W Transformer,1.0,0.0,0.12,0,2000.0,2000.0,Y,2TF,,,,,,,8193
143,30008193,LYSSY4A     -8193,28.94446,-98.17402,,138.0,0.0,PQ,8193_ERCOT,"POINT(28.94446,-98.17402)",p65,ERCOT,ERCOT,ERCOT_S,WSC,TX,texas,USA,southern-plains,TX_S_ERCOT,8193,98,700015,8193,345138,0.0,New 345/138 kV 2W Transformer,2.0,0.0,0.12,0,2000.0,2000.0,Y,2TF,,,,,,,8193
144,30008203,PLEASANT4A  -8203,28.99057,-98.438532,,138.0,0.001324584,PQ,8203_ERCOT,"POINT(28.99057,-98.438532)",p65,ERCOT,ERCOT,ERCOT_S,WSC,TX,texas,USA,southern-plains,TX_S_ERCOT,8203,80,700014,8203,345138,0.0,New 345/138 kV 2W Transformer,1.0,0.0,0.12,0,2000.0,2000.0,Y,2TF,,,,,,,8203
145,30008203,PLEASANT4A  -8203,28.99057,-98.438532,,138.0,0.001324584,PQ,8203_ERCOT,"POINT(28.99057,-98.438532)",p65,ERCOT,ERCOT,ERCOT_S,WSC,TX,texas,USA,southern-plains,TX_S_ERCOT,8203,81,700014,8203,345138,0.0,New 345/138 kV 2W Transformer,2.0,0.0,0.12,0,2000.0,2000.0,Y,2TF,,,,,,,8203
146,30008234,UVALDE4A    -8234,29.214148,-99.799176,,138.0,0.001539947,PQ,8234_ERCOT,"POINT(29.214148,-99.799176)",p65,ERCOT,ERCOT,ERCOT_S,WSC,TX,texas,USA,southern-plains,TX_S_ERCOT,8234,68,700012,8234,345138,0.0,New 345/138 kV 2W Transformer,1.0,0.0,0.12,0,2000.0,2000.0,Y,2TF,,,,,,,8234
147,30008234,UVALDE4A    -8234,29.214148,-99.799176,,138.0,0.001539947,PQ,8234_ERCOT,"POINT(29.214148,-99.799176)",p65,ERCOT,ERCOT,ERCOT_S,WSC,TX,texas,USA,southern-plains,TX_S_ERCOT,8234,69,700012,8234,345138,0.0,New 345/138 kV 2W Transformer,2.0,0.0,0.12,0,2000.0,2000.0,Y,2TF,,,,,,,8234
148,30008252,BRACKETT4A  -8252,29.32404,-100.393463,,138.0,0.002852423,PQ,8252_ERCOT,"POINT(29.32404,-100.393463)",p61,ERCOT,ERCOT,ERCOT_W,WSC,TX,texas,USA,southern-plains,TX_W_ERCOT,8252,63,700011,8252,345138,0.0,New 345/138 kV 2W Transformer,1.0,0.0,0.12,0,2000.0,2000.0,Y,2TF,,,,,,,8252
149,30008252,BRACKETT4A  -8252,29.32404,-100.393463,,138.0,0.002852423,PQ,8252_ERCOT,"POINT(29.32404,-100.393463)",p61,ERCOT,ERCOT,ERCOT_W,WSC,TX,texas,USA,southern-plains,TX_W_ERCOT,8252,64,700011,8252,345138,0.0,New 345/138 kV 2W Transformer,2.0,0.0,0.12,0,2000.0,2000.0,Y,2TF,,,,,,,8252
150,30008255,HAMILTON4A  -8255,29.374558,-100.849613,,138.0,0.011633363,PQ,8255_ERCOT,"POINT(29.374558,-100.849613)",p61,ERCOT,ERCOT,ERCOT_W,WSC,TX,texas,USA,southern-plains,TX_W_ERCOT,8255,43,700008,8255,345138,0.0,New 345/138 kV 2W Transformer,1.0,0.0,0.12,0,2000.0,2000.0,Y,2TF,,,,,,,8255
151,30008255,HAMILTON4A  -8255,29.374558,-100.849613,,138.0,0.011633363,PQ,8255_ERCOT,"POINT(29.374558,-100.849613)",p61,ERCOT,ERCOT,ERCOT_W,WSC,TX,texas,USA,southern-plains,TX_W_ERCOT,8255,44,700008,8255,345138,0.0,New 345/138 kV 2W Transformer,2.0,0.0,0.12,0,2000.0,2000.0,Y,2TF,,,,,,,8255
152,30044230,FLEWLN__138A-44230,29.695458,-95.821063,,138.0,0.011729504,PQ,44230_ERCOT,"POINT(29.695458,-95.821063)",p67,ERCOT,ERCOT,ERCOT_H,WSC,TX,texas,USA,southern-plains,TX_H_ERCOT,4230,168,700025,44230,345138,0.0,New 345/138 kV 2W Transformer,1.0,0.0,0.12,0,2000.0,2000.0,Y,2TF,,,,,,,4230
153,30044230,FLEWLN__138A-44230,29.695458,-95.821063,,138.0,0.011729504,PQ,44230_ERCOT,"POINT(29.695458,-95.821063)",p67,ERCOT,ERCOT,ERCOT_H,WSC,TX,texas,USA,southern-plains,TX_H_ERCOT,4230,169,700025,44230,345138,0.0,New 345/138 kV 2W Transformer,2.0,0.0,0.12,0,2000.0,2000.0,Y,2TF,,,,,,,4230
154,30044262,FRANZ66_8015-44262,29.749907,-95.358421,,138.0,0.32001125,PQ,44262_ERCOT,"POINT(29.749907,-95.358421)",p67,ERCOT,ERCOT,ERCOT_H,WSC,TX,texas,USA,southern-plains,TX_H_ERCOT,4262,152,700022,44262,345138,0.0,New 345/138 kV 2W Transformer,1.0,0.0,0.12,0,2000.0,2000.0,Y,2TF,,,,,,,4262
155,30044262,FRANZ66_8015-44262,29.749907,-95.358421,,138.0,0.32001125,PQ,44262_ERCOT,"POINT(29.749907,-95.358421)",p67,ERCOT,ERCOT,ERCOT_H,WSC,TX,texas,USA,southern-plains,TX_H_ERCOT,4262,153,700022,44262,345138,0.0,New 345/138 kV 2W Transformer,2.0,0.0,0.12,0,2000.0,2000.0,Y,2TF,,,,,,,4262
156,30044362,INTERM268030-44362,29.60671,-95.447059,,138.0,0.000863209,PQ,44362_ERCOT,"POINT(29.60671,-95.447059)",p67,ERCOT,ERCOT,ERCOT_H,WSC,TX,texas,USA,southern-plains,TX_H_ERCOT,4362,160,700024,44362,345138,0.0,New 345/138 kV 2W Transformer,1.0,0.0,0.12,0,2000.0,2000.0,Y,2TF,,,,,,,4362
157,30044362,INTERM268030-44362,29.60671,-95.447059,,138.0,0.000863209,PQ,44362_ERCOT,"POINT(29.60671,-95.447059)",p67,ERCOT,ERCOT,ERCOT_H,WSC,TX,texas,USA,southern-plains,TX_H_ERCOT,4362,161,700024,44362,345138,0.0,New 345/138 kV 2W Transformer,2.0,0.0,0.12,0,2000.0,2000.0,Y,2TF,,,,,,,4362
158,30046220,PETERS__138B-46220,29.848385,-96.20161,,138.0,0.0,PQ,46220_ERCOT,"POINT(29.848385,-96.20161)",p64,ERCOT,ERCOT,ERCOT_S,WSC,TX,texas,USA,southern-plains,TX_S_ERCOT,6220,141,700021,46220,345138,0.0,New 345/138 kV 2W Transformer,1.0,0.0,0.12,0,2000.0,2000.0,Y,2TF,,,,,,,6220
159,30046220,PETERS__138B-46220,29.848385,-96.20161,,138.0,0.0,PQ,46220_ERCOT,"POINT(29.848385,-96.20161)",p64,ERCOT,ERCOT,ERCOT_S,WSC,TX,texas,USA,southern-plains,TX_S_ERCOT,6220,142,700021,46220,345138,0.0,New 345/138 kV 2W Transformer,2.0,0.0,0.12,0,2000.0,2000.0,Y,2TF,,,,,,,6220
160,30046220,PETERS__138B-46220,29.848385,-96.20161,,138.0,0.0,PQ,46220_ERCOT,"POINT(29.848385,-96.20161)",p64,ERCOT,ERCOT,ERCOT_S,WSC,TX,texas,USA,southern-plains,TX_S_ERCOT,6220,173,700026,46220,345138,0.0,New 345/138 kV 2W Transformer,1.0,0.0,0.12,0,2000.0,2000.0,Y,2TF,,,,,,,6220
161,30046220,PETERS__138B-46220,29.848385,-96.20161,,138.0,0.0,PQ,46220_ERCOT,"POINT(29.848385,-96.20161)",p64,ERCOT,ERCOT,ERCOT_S,WSC,TX,texas,USA,southern-plains,TX_S_ERCOT,6220,174,700026,46220,345138,0.0,New 345/138 kV 2W Transformer,2.0,0.0,0.12,0,2000.0,2000.0,Y,2TF,,,,,,,6220
162,30076579,L_FORTLA8_1Y-76579,30.66409,-101.779863,,138.0,0.0,PQ,76579_ERCOT,"POINT(30.66409,-101.779863)",p61,ERCOT,ERCOT,ERCOT_W,WSC,TX,texas,USA,southern-plains,TX_W_ERCOT,6579,26,700005,76579,345138,0.0,New 345/138 kV 2W Transformer,1.0,0.0,0.12,0,2000.0,2000.0,Y,2TF,,,,,,,6579
163,30076579,L_FORTLA8_1Y-76579,30.66409,-101.779863,,138.0,0.0,PQ,76579_ERCOT,"POINT(30.66409,-101.779863)",p61,ERCOT,ERCOT,ERCOT_W,WSC,TX,texas,USA,southern-plains,TX_W_ERCOT,6579,27,700005,76579,345138,0.0,New 345/138 kV 2W Transformer,2.0,0.0,0.12,0,2000.0,2000.0,Y,2TF,,,,,,,6579
164,20160308,VAIL_160308,32.069688,-110.81314,,345.0,0.0,PQ,16_WECC,"POINT(32.069688,-110.81314)",p30,WECC_SRSG,WestConnect,WestConnect_South,MTN,AZ,western,USA,mountain,AZ,60308,173,700038,160308,500345,0.0,New 500/230 kV 2W Transformer,1.0,0.0,0.12,0,2000.0,2000.0,Y,2TF,,,,,,,60308
165,20160308,VAIL_160308,32.069688,-110.81314,,345.0,0.0,PQ,16_WECC,"POINT(32.069688,-110.81314)",p30,WECC_SRSG,WestConnect,WestConnect_South,MTN,AZ,western,USA,mountain,AZ,60308,174,700038,160308,500345,0.0,New 500/230 kV 2W Transformer,2.0,0.0,0.12,0,2000.0,2000.0,Y,2TF,,,,,,,60308
166,20010403,CABEZON_10403,35.74458,-107.13344,,345.0,0.0,PQ,10_WECC,"POINT(35.74458,-107.13344)",p31,WECC_SRSG,WestConnect,WestConnect_South,MTN,NM,western,USA,mountain,NM_WestConnect,10403,150,700032,10403,500345,0.0,New 500/230 kV 2W Transformer,1.0,0.0,0.12,0,2000.0,2000.0,Y,2TF,,,,,,,10403
167,20010403,CABEZON_10403,35.74458,-107.13344,,345.0,0.0,PQ,10_WECC,"POINT(35.74458,-107.13344)",p31,WECC_SRSG,WestConnect,WestConnect_South,MTN,NM,western,USA,mountain,NM_WestConnect,10403,151,700032,10403,500345,0.0,New 500/230 kV 2W Transformer,2.0,0.0,0.12,0,2000.0,2000.0,Y,2TF,,,,,,,10403
168,20064069,MACHACEK_64069,39.544293,-115.971359,,230.0,0.0,PQ,64_WECC,"POINT(39.544293,-115.971359)",p12,WECC_NWPP,NorthernGrid,NorthernGrid_South,MTN,NV,western,USA,mountain,NV,64069,47,700012,64069,500230,0.0,New 500/230 kV 2W Transformer,1.0,0.0,0.12,0,2000.0,2000.0,Y,2TF,,,,,,,64069
169,20064069,MACHACEK_64069,39.544293,-115.971359,,230.0,0.0,PQ,64_WECC,"POINT(39.544293,-115.971359)",p12,WECC_NWPP,NorthernGrid,NorthernGrid_South,MTN,NV,western,USA,mountain,NV,64069,48,700012,64069,500230,0.0,New 500/230 kV 2W Transformer,2.0,0.0,0.12,0,2000.0,2000.0,Y,2TF,,,,,,,64069
170,20189016,INNOVATION_189016,36.582484,-115.947162,,230.0,0.0,PQ,18_WECC,"POINT(36.582484,-115.947162)",p12,WECC_NWPP,NorthernGrid,NorthernGrid_South,MTN,NV,western,USA,mountain,NV,89016,38,700009,189016,500230,0.0,New 500/230 kV 2W Transformer,1.0,0.0,0.12,0,2000.0,2000.0,Y,2TF,,,,,,,89016
171,20189016,INNOVATION_189016,36.582484,-115.947162,,230.0,0.0,PQ,18_WECC,"POINT(36.582484,-115.947162)",p12,WECC_NWPP,NorthernGrid,NorthernGrid_South,MTN,NV,western,USA,mountain,NV,89016,39,700009,189016,500230,0.0,New 500/230 kV 2W Transformer,2.0,0.0,0.12,0,2000.0,2000.0,Y,2TF,,,,,,,89016
172,20024019,CAMINO_24019,34.845281,-114.967467,,230.0,0.0,PQ,24_WECC,"POINT(34.845281,-114.967467)",p10,WECC_CA,CAISO,CAISO_S,PA,CA,western,USA,pacific,CA_S_CAISO,24019,192,700042,24019,500230,0.0,New 500/230 kV 2W Transformer,1.0,0.0,0.12,0,2000.0,2000.0,Y,2TF,,,,,,,24019
173,20024019,CAMINO_24019,34.845281,-114.967467,,230.0,0.0,PQ,24_WECC,"POINT(34.845281,-114.967467)",p10,WECC_CA,CAISO,CAISO_S,PA,CA,western,USA,pacific,CA_S_CAISO,24019,193,700042,24019,500230,0.0,New 500/230 kV 2W Transformer,2.0,0.0,0.12,0,2000.0,2000.0,Y,2TF,,,,,,,24019
174,20065193,BONANZA_65193,40.087232,-109.291713,,345.0,0.0,PQ,65_WECC,"POINT(40.087232,-109.291713)",p26,WECC_NWPP,NorthernGrid,NorthernGrid_South,MTN,UT,western,USA,mountain,UT,65193,65,700016,65193,500345,0.0,New 500/230 kV 2W Transformer,1.0,0.0,0.12,0,2000.0,2000.0,Y,2TF,,,,,,,65193
175,20065193,BONANZA_65193,40.087232,-109.291713,,345.0,0.0,PQ,65_WECC,"POINT(40.087232,-109.291713)",p26,WECC_NWPP,NorthernGrid,NorthernGrid_South,MTN,UT,western,USA,mountain,UT,65193,66,700016,65193,500345,0.0,New 500/230 kV 2W Transformer,2.0,0.0,0.12,0,2000.0,2000.0,Y,2TF,,,,,,,65193
176,20064308,ALPINE_64308,39.47084,-117.822861,,230.0,0.0,PQ,64_WECC,"POINT(39.47084,-117.822861)",p12,WECC_NWPP,NorthernGrid,NorthernGrid_South,MTN,NV,western,USA,mountain,NV,64308,50,700013,64308,500230,0.0,New 500/230 kV 2W Transformer,1.0,0.0,0.12,0,2000.0,2000.0,Y,2TF,,,,,,,64308
177,20064308,ALPINE_64308,39.47084,-117.822861,,230.0,0.0,PQ,64_WECC,"POINT(39.47084,-117.822861)",p12,WECC_NWPP,NorthernGrid,NorthernGrid_South,MTN,NV,western,USA,mountain,NV,64308,51,700013,64308,500230,0.0,New 500/230 kV 2W Transformer,2.0,0.0,0.12,0,2000.0,2000.0,Y,2TF,,,,,,,64308
178,20060190,KINPORT_60190,42.893347,-112.561003,,345.0,0.0,PQ,60_WECC,"POINT(42.893347,-112.561003)",p16,WECC_NWPP,NorthernGrid,NorthernGrid_East,MTN,ID,western,USA,mountain,ID,60190,118,700024,60190,500345,0.0,New 500/345 kV 2W Transformer,1.0,0.0,0.12,0,2000.0,2000.0,Y,2TF,,,,,,,60190
179,20060190,KINPORT_60190,42.893347,-112.561003,,345.0,0.0,PQ,60_WECC,"POINT(42.893347,-112.561003)",p16,WECC_NWPP,NorthernGrid,NorthernGrid_East,MTN,ID,western,USA,mountain,ID,60190,119,700024,60190,500345,0.0,New 500/345 kV 2W Transformer,2.0,0.0,0.12,0,2000.0,2000.0,Y,2TF,,,,,,,60190
180,20073571,SNOWYRNG_73571,41.334858,-105.560925,,230.0,0.0,PQ,73_WECC,"POINT(41.334858,-105.560925)",p24,WECC_NWPP,WestConnect,WestConnect_North,MTN,WY,western,USA,mountain,WY_WestConnect,73571,70,700017,73571,500345,0.0,New 500/230 kV 2W Transformer,1.0,0.0,0.12,0,2000.0,2000.0,Y,2TF,,,,,,,73571
181,20073571,SNOWYRNG_73571,41.334858,-105.560925,,230.0,0.0,PQ,73_WECC,"POINT(41.334858,-105.560925)",p24,WECC_NWPP,WestConnect,WestConnect_North,MTN,WY,western,USA,mountain,WY_WestConnect,73571,71,700017,73571,500345,0.0,New 500/230 kV 2W Transformer,2.0,0.0,0.12,0,2000.0,2000.0,Y,2TF,,,,,,,73571
182,20629001,OVANDO_629001,46.9319,-113.099,,230.0,0.0,PQ,62_WECC,"POINT(46.9319,-113.099)",p17,WECC_NWPP,NorthernGrid,NorthernGrid_East,MTN,MT,western,USA,mountain,MT_NorthernGrid,29001,10,700003,629001,500230,0.0,New 500/230 kV 2W Transformer,1.0,0.0,0.12,0,2000.0,2000.0,Y,2TF,,,,,,,29001
183,20629001,OVANDO_629001,46.9319,-113.099,,230.0,0.0,PQ,62_WECC,"POINT(46.9319,-113.099)",p17,WECC_NWPP,NorthernGrid,NorthernGrid_East,MTN,MT,western,USA,mountain,MT_NorthernGrid,29001,11,700003,629001,500230,0.0,New 500/230 kV 2W Transformer,2.0,0.0,0.12,0,2000.0,2000.0,Y,2TF,,,,,,,29001
184,20065420,DAVEJOHN_65420,42.838414,-105.778387,,230.0,0.0,PQ,65_WECC,"POINT(42.838414,-105.778387)",p24,WECC_NWPP,WestConnect,WestConnect_North,MTN,WY,western,USA,mountain,WY_WestConnect,65420,89,700020,65420,500230,0.0,New 500/230 kV 2W Transformer,1.0,0.0,0.12,0,2000.0,2000.0,Y,2TF,,,,,,,65420
185,20019042,PARKER_19042,34.294916,-114.142478,,230.0,0.0,PQ,19_WECC,"POINT(34.294916,-114.142478)",p10,WECC_CA,CAISO,CAISO_S,PA,CA,western,USA,pacific,CA_S_CAISO,19042,184,700040,19042,500230,0.0,New 500/230 kV 2W Transformer,1.0,0.0,0.12,0,2000.0,2000.0,Y,2TF,,,,,,,19042
186,20019042,PARKER_19042,34.294916,-114.142478,,230.0,0.0,PQ,19_WECC,"POINT(34.294916,-114.142478)",p10,WECC_CA,CAISO,CAISO_S,PA,CA,western,USA,pacific,CA_S_CAISO,19042,185,700040,19042,500230,0.0,New 500/230 kV 2W Transformer,2.0,0.0,0.12,0,2000.0,2000.0,Y,2TF,,,,,,,19042
187,20030020,OLINDA_30020,40.384346,-122.383961,,500.0,0.0,PQ,30_WECC,"POINT(40.384346,-122.383961)",p9,WECC_CA,CAISO,CAISO_N,PA,CA,western,USA,pacific,CA_N_CAISO,30020,19,700005,630020,500230,0.0,New 500/230 kV 2W Transformer,1.0,0.0,0.12,0,2000.0,2000.0,Y,2TF,,,,,,,30020
188,20030020,OLINDA_30020,40.384346,-122.383961,,500.0,0.0,PQ,30_WECC,"POINT(40.384346,-122.383961)",p9,WECC_CA,CAISO,CAISO_N,PA,CA,western,USA,pacific,CA_N_CAISO,30020,20,700005,630020,500230,0.0,New 500/230 kV 2W Transformer,2.0,0.0,0.12,0,2000.0,2000.0,Y,2TF,,,,,,,30020
189,20630020,ROSEBUD MDU_630020,46.2604,-106.47319,,230.0,0.0,PQ,63_WECC,"POINT(46.2604,-106.47319)",p20,WECC_NWPP,NorthernGrid,NorthernGrid_East,MTN,MT,western,USA,mountain,MT_NorthernGrid,30020,19,700005,630020,500230,0.0,New 500/230 kV 2W Transformer,1.0,0.0,0.12,0,2000.0,2000.0,Y,2TF,,,,,,,30020
190,20630020,ROSEBUD MDU_630020,46.2604,-106.47319,,230.0,0.0,PQ,63_WECC,"POINT(46.2604,-106.47319)",p20,WECC_NWPP,NorthernGrid,NorthernGrid_East,MTN,MT,western,USA,mountain,MT_NorthernGrid,30020,20,700005,630020,500230,0.0,New 500/230 kV 2W Transformer,2.0,0.0,0.12,0,2000.0,2000.0,Y,2TF,,,,,,,30020
191,20010390,RIOPUERC_10390,35.3279,-106.856477,,345.0,0.0,PQ,10_WECC,"POINT(35.3279,-106.856477)",p31,WECC_SRSG,WestConnect,WestConnect_South,MTN,NM,western,USA,mountain,NM_WestConnect,10390,141,700029,10390,500345,0.0,New 500/230 kV 2W Transformer,1.0,0.0,0.12,0,2000.0,2000.0,Y,2TF,,,,,,,10390
192,20010390,RIOPUERC_10390,35.3279,-106.856477,,345.0,0.0,PQ,10_WECC,"POINT(35.3279,-106.856477)",p31,WECC_SRSG,WestConnect,WestConnect_South,MTN,NM,western,USA,mountain,NM_WestConnect,10390,142,700029,10390,500345,0.0,New 500/230 kV 2W Transformer,2.0,0.0,0.12,0,2000.0,2000.0,Y,2TF,,,,,,,10390
193,20070061,BOONE_70061,38.256501,-104.22482,,230.0,0.0,PQ,70_WECC,"POINT(38.256501,-104.22482)",p34,WECC_NWPP,WestConnect,WestConnect_North,MTN,CO,western,USA,mountain,CO,70061,26,700006,70061,345230,0.0,New 345/230 kV 2W Transformer,1.0,0.0,0.12,0,2000.0,2400.0,Y,2TF,,,,,,,70061
194,20070061,BOONE_70061,38.256501,-104.22482,,230.0,0.0,PQ,70_WECC,"POINT(38.256501,-104.22482)",p34,WECC_NWPP,WestConnect,WestConnect_North,MTN,CO,western,USA,mountain,CO,70061,27,700006,70061,345230,0.0,New 345/230 kV 2W Transformer,2.0,0.0,0.12,0,2000.0,2400.0,Y,2TF,,,,,,,70061
195,20014101,FOURCORN_14101,36.688118,-108.485426,,345.0,0.0,PQ,14_WECC,"POINT(36.688118,-108.485426)",p31,WECC_SRSG,WestConnect,WestConnect_South,MTN,NM,western,USA,mountain,NM_WestConnect,14101,146,700031,14101,500345,0.0,New 500/230 kV 2W Transformer,1.0,0.0,0.12,0,2000.0,2000.0,Y,2TF,,,,,,,14101
196,20014101,FOURCORN_14101,36.688118,-108.485426,,345.0,0.0,PQ,14_WECC,"POINT(36.688118,-108.485426)",p31,WECC_SRSG,WestConnect,WestConnect_South,MTN,NM,western,USA,mountain,NM_WestConnect,14101,147,700031,14101,500345,0.0,New 500/230 kV 2W Transformer,2.0,0.0,0.12,0,2000.0,2000.0,Y,2TF,,,,,,,14101
197,20065300,CASPERPP_65300,42.871684,-106.35995,,230.0,0.0,PQ,65_WECC,"POINT(42.871684,-106.35995)",p24,WECC_NWPP,WestConnect,WestConnect_North,MTN,WY,western,USA,mountain,WY_WestConnect,65300,85,700022,65300,500230,0.0,New 500/230 kV 2W Transformer,1.0,0.0,0.12,0,2000.0,2000.0,Y,2TF,,,,,,,65300
198,20065300,CASPERPP_65300,42.871684,-106.35995,,230.0,0.0,PQ,65_WECC,"POINT(42.871684,-106.35995)",p24,WECC_NWPP,WestConnect,WestConnect_North,MTN,WY,western,USA,mountain,WY_WestConnect,65300,86,700022,65300,500230,0.0,New 500/230 kV 2W Transformer,2.0,0.0,0.12,0,2000.0,2000.0,Y,2TF,,,,,,,65300
199,20065300,CASPERPP_65300,42.871684,-106.35995,,230.0,0.0,PQ,65_WECC,"POINT(42.871684,-106.35995)",p24,WECC_NWPP,WestConnect,WestConnect_North,MTN,WY,western,USA,mountain,WY_WestConnect,65300,90,700020,65300,500230,0.0,New 500/230 kV 2W Transformer,2.0,0.0,0.12,0,2000.0,2000.0,Y,2TF,,,,,,,65300
200,20030435,LAKEVILE_30435,38.247643,-122.583056,,230.0,0.0,PQ,30_WECC,"POINT(38.247643,-122.583056)",p9,WECC_CA,CAISO,CAISO_N,PA,CA,western,USA,pacific,CA_N_CAISO,30435,261,700052,30435,500230,0.0,New 500/230 kV 2W Transformer,1.0,0.0,0.12,0,2000.0,2000.0,Y,2TF,,,,,,,30435
201,20030435,LAKEVILE_30435,38.247643,-122.583056,,230.0,0.0,PQ,30_WECC,"POINT(38.247643,-122.583056)",p9,WECC_CA,CAISO,CAISO_N,PA,CA,western,USA,pacific,CA_N_CAISO,30435,262,700052,30435,500230,0.0,New 500/230 kV 2W Transformer,2.0,0.0,0.12,0,2000.0,2000.0,Y,2TF,,,,,,,30435
202,20622001,GTF 230SWYD_622001,47.543408,-111.223029,,230.0,0.0,PQ,62_WECC,"POINT(47.543408,-111.223029)",p18,WECC_NWPP,NorthernGrid,NorthernGrid_East,MTN,MT,western,USA,mountain,MT_NorthernGrid,22001,14,700004,622001,500230,0.0,New 500/230 kV 2W Transformer,1.0,0.0,0.12,0,2000.0,2000.0,Y,2TF,,,,,,,22001
203,20622001,GTF 230SWYD_622001,47.543408,-111.223029,,230.0,0.0,PQ,62_WECC,"POINT(47.543408,-111.223029)",p18,WECC_NWPP,NorthernGrid,NorthernGrid_East,MTN,MT,western,USA,mountain,MT_NorthernGrid,22001,15,700004,622001,500230,0.0,New 500/230 kV 2W Transformer,2.0,0.0,0.12,0,2000.0,2000.0,Y,2TF,,,,,,,22001
204,20010110,DIAMOND_TAIL_10110,35.361424,-106.339136,,345.0,0.0,PQ,10_WECC,"POINT(35.361424,-106.339136)",p31,WECC_SRSG,WestConnect,WestConnect_South,MTN,NM,western,USA,mountain,NM_WestConnect,10110,127,700025,10110,500345,0.0,New 500/230 kV 2W Transformer,1.0,0.0,0.12,0,2000.0,2000.0,Y,2TF,,,,,,,10110
205,20010110,DIAMOND_TAIL_10110,35.361424,-106.339136,,345.0,0.0,PQ,10_WECC,"POINT(35.361424,-106.339136)",p31,WECC_SRSG,WestConnect,WestConnect_South,MTN,NM,western,USA,mountain,NM_WestConnect,10110,128,700025,10110,500345,0.0,New 500/230 kV 2W Transformer,2.0,0.0,0.12,0,2000.0,2000.0,Y,2TF,,,,,,,10110
206,20010959,WSPIRIT_10959,34.6327,-105.665,,345.0,0.0,PQ,10_WECC,"POINT(34.6327,-105.665)",p31,WECC_SRSG,WestConnect,WestConnect_South,MTN,NM,western,USA,mountain,NM_WestConnect,10959,133,700027,10959,500345,0.0,New 500/230 kV 2W Transformer,1.0,0.0,0.12,0,2000.0,2000.0,Y,2TF,,,,,,,10959
207,20010959,WSPIRIT_10959,34.6327,-105.665,,345.0,0.0,PQ,10_WECC,"POINT(34.6327,-105.665)",p31,WECC_SRSG,WestConnect,WestConnect_South,MTN,NM,western,USA,mountain,NM_WestConnect,10959,134,700027,10959,500345,0.0,New 500/230 kV 2W Transformer,2.0,0.0,0.12,0,2000.0,2000.0,Y,2TF,,,,,,,10959
208,20040895,ROGUE_40895,42.482952,-124.402105,,230.0,0.0,PQ,40_WECC,"POINT(42.482952,-124.402105)",p6,WECC_NWPP,NorthernGrid,NorthernGrid_West,PA,OR,western,USA,pacific,OR,40895,100,700023,40895,500230,0.0,New 500/230 kV 2W Transformer,1.0,0.0,0.12,0,2000.0,2000.0,Y,2TF,,,,,,,40895
209,20040895,ROGUE_40895,42.482952,-124.402105,,230.0,0.0,PQ,40_WECC,"POINT(42.482952,-124.402105)",p6,WECC_NWPP,NorthernGrid,NorthernGrid_West,PA,OR,western,USA,pacific,OR,40895,101,700023,40895,500230,0.0,New 500/230 kV 2W Transformer,2.0,0.0,0.12,0,2000.0,2000.0,Y,2TF,,,,,,,40895
210,20037640,TRINITY_37640,40.797327,-122.76274,,230.0,0.0,PQ,30_WECC,"POINT(40.797327,-122.76274)",p9,WECC_CA,CAISO,CAISO_N,PA,CA,western,USA,pacific,CA_N_CAISO,37640,249,700049,37640,500230,0.0,New 500/230 kV 2W Transformer,1.0,0.0,0.12,0,2000.0,2000.0,Y,2TF,,,,,,,37640
211,20037640,TRINITY_37640,40.797327,-122.76274,,230.0,0.0,PQ,30_WECC,"POINT(40.797327,-122.76274)",p9,WECC_CA,CAISO,CAISO_N,PA,CA,western,USA,pacific,CA_N_CAISO,37640,250,700049,37640,500230,0.0,New 500/230 kV 2W Transformer,2.0,0.0,0.12,0,2000.0,2000.0,Y,2TF,,,,,,,37640
212,20065235,BUFFALO_65235,44.35,-106.65,,230.0,0.0,PQ,65_WECC,"POINT(44.35,-106.65)",p22,WECC_NWPP,NorthernGrid,NorthernGrid_East,MTN,WY,western,USA,mountain,WY_NorthernGrid,65235,81,700019,65235,500230,0.0,New 500/230 kV 2W Transformer,1.0,0.0,0.12,0,2000.0,2000.0,Y,2TF,,,,,,,65235
213,20065235,BUFFALO_65235,44.35,-106.65,,230.0,0.0,PQ,65_WECC,"POINT(44.35,-106.65)",p22,WECC_NWPP,NorthernGrid,NorthernGrid_East,MTN,WY,western,USA,mountain,WY_NorthernGrid,65235,82,700019,65235,500230,0.0,New 500/230 kV 2W Transformer,2.0,0.0,0.12,0,2000.0,2000.0,Y,2TF,,,,,,,65235
214,20010369,WESTMESA_10369,35.11533,-106.725791,,345.0,0.0,PQ,10_WECC,"POINT(35.11533,-106.725791)",p31,WECC_SRSG,WestConnect,WestConnect_South,MTN,NM,western,USA,mountain,NM_WestConnect,10369,161,700035,10369,500345,0.0,New 500/230 kV 2W Transformer,1.0,0.0,0.12,0,2000.0,2000.0,Y,2TF,,,,,,,10369
215,20010369,WESTMESA_10369,35.11533,-106.725791,,345.0,0.0,PQ,10_WECC,"POINT(35.11533,-106.725791)",p31,WECC_SRSG,WestConnect,WestConnect_South,MTN,NM,western,USA,mountain,NM_WestConnect,10369,162,700035,10369,500345,0.0,New 500/230 kV 2W Transformer,2.0,0.0,0.12,0,2000.0,2000.0,Y,2TF,,,,,,,10369
216,20160301,GREENLEE_160301,32.966932,-109.172371,,345.0,0.0,PQ,16_WECC,"POINT(32.966932,-109.172371)",p28,WECC_SRSG,WestConnect,WestConnect_South,MTN,AZ,western,USA,mountain,AZ,60301,169,700037,160301,500345,0.0,New 500/230 kV 2W Transformer,1.0,0.0,0.12,0,2000.0,2000.0,Y,2TF,,,,,,,60301
217,20160301,GREENLEE_160301,32.966932,-109.172371,,345.0,0.0,PQ,16_WECC,"POINT(32.966932,-109.172371)",p28,WECC_SRSG,WestConnect,WestConnect_South,MTN,AZ,western,USA,mountain,AZ,60301,170,700037,160301,500345,0.0,New 500/230 kV 2W Transformer,2.0,0.0,0.12,0,2000.0,2000.0,Y,2TF,,,,,,,60301
218,20070254,LAMAR_CO_70254,38.207274,-102.530354,,230.0,0.0,PQ,70_WECC,"POINT(38.207274,-102.530354)",p34,WECC_NWPP,WestConnect,WestConnect_North,MTN,CO,western,USA,mountain,CO,70254,28,700007,70254,345230,0.0,New 345/230 kV 2W Transformer,1.0,0.0,0.12,0,2000.0,2400.0,Y,2TF,,,,,,,70254
219,20070254,LAMAR_CO_70254,38.207274,-102.530354,,230.0,0.0,PQ,70_WECC,"POINT(38.207274,-102.530354)",p34,WECC_NWPP,WestConnect,WestConnect_North,MTN,CO,western,USA,mountain,CO,70254,29,700007,70254,345230,0.0,New 345/230 kV 2W Transformer,2.0,0.0,0.12,0,2000.0,2400.0,Y,2TF,,,,,,,70254
220,20019022,DAVIS_19022,35.194873,-114.567615,,230.0,0.0,PQ,19_WECC,"POINT(35.194873,-114.567615)",p27,WECC_SRSG,WestConnect,WestConnect_South,MTN,AZ,western,USA,mountain,AZ,19022,188,700041,19022,500230,0.0,New 500/230 kV 2W Transformer,1.0,0.0,0.12,0,2000.0,2000.0,Y,2TF,,,,,,,19022
221,20019022,DAVIS_19022,35.194873,-114.567615,,230.0,0.0,PQ,19_WECC,"POINT(35.194873,-114.567615)",p27,WECC_SRSG,WestConnect,WestConnect_South,MTN,AZ,western,USA,mountain,AZ,19022,189,700041,19022,500230,0.0,New 500/230 kV 2W Transformer,2.0,0.0,0.12,0,2000.0,2000.0,Y,2TF,,,,,,,19022
222,20060095,BROWNLEE_60095,44.840217,-116.896467,,230.0,0.0,PQ,60_WECC,"POINT(44.840217,-116.896467)",p15,WECC_NWPP,NorthernGrid,NorthernGrid_East,MTN,ID,western,USA,mountain,ID,60095,5,700002,60095,500230,0.0,New 500/230 kV 2W Transformer,1.0,0.0,0.12,0,2000.0,2000.0,Y,2TF,,,,,,,60095
223,20060095,BROWNLEE_60095,44.840217,-116.896467,,230.0,0.0,PQ,60_WECC,"POINT(44.840217,-116.896467)",p15,WECC_NWPP,NorthernGrid,NorthernGrid_East,MTN,ID,western,USA,mountain,ID,60095,6,700002,60095,500230,0.0,New 500/230 kV 2W Transformer,2.0,0.0,0.12,0,2000.0,2000.0,Y,2TF,,,,,,,60095
224,20073036,BURLNGTN_73036,39.359012,-102.242914,,230.0,0.0,PQ,73_WECC,"POINT(39.359012,-102.242914)",p34,WECC_NWPP,WestConnect,WestConnect_North,MTN,CO,western,USA,mountain,CO,73036,30,700008,73036,345230,0.0,New 345/230 kV 2W Transformer,1.0,0.0,0.12,0,2000.0,2400.0,Y,2TF,,,,,,,73036
225,20073036,BURLNGTN_73036,39.359012,-102.242914,,230.0,0.0,PQ,73_WECC,"POINT(39.359012,-102.242914)",p34,WECC_NWPP,WestConnect,WestConnect_North,MTN,CO,western,USA,mountain,CO,73036,31,700008,73036,345230,0.0,New 345/230 kV 2W Transformer,2.0,0.0,0.12,0,2000.0,2400.0,Y,2TF,,,,,,,73036
226,20010968,CLINECORNER_10968,35.092809,-105.716554,,345.0,0.0,PQ,10_WECC,"POINT(35.092809,-105.716554)",p31,WECC_SRSG,WestConnect,WestConnect_South,MTN,NM,western,USA,mountain,NM_WestConnect,10968,130,700026,10968,500345,0.0,New 500/230 kV 2W Transformer,1.0,0.0,0.12,0,2000.0,2000.0,Y,2TF,,,,,,,10968
227,20010968,CLINECORNER_10968,35.092809,-105.716554,,345.0,0.0,PQ,10_WECC,"POINT(35.092809,-105.716554)",p31,WECC_SRSG,WestConnect,WestConnect_South,MTN,NM,western,USA,mountain,NM_WestConnect,10968,131,700026,10968,500345,0.0,New 500/230 kV 2W Transformer,2.0,0.0,0.12,0,2000.0,2000.0,Y,2TF,,,,,,,10968
228,20010025,B-A_10025,35.349687,-106.484473,,345.0,0.0,PQ,10_WECC,"POINT(35.349687,-106.484473)",p31,WECC_SRSG,WestConnect,WestConnect_South,MTN,NM,western,USA,mountain,NM_WestConnect,10025,137,700028,10025,500345,0.0,New 500/230 kV 2W Transformer,1.0,0.0,0.12,0,2000.0,2000.0,Y,2TF,,,,,,,10025
229,20010025,B-A_10025,35.349687,-106.484473,,345.0,0.0,PQ,10_WECC,"POINT(35.349687,-106.484473)",p31,WECC_SRSG,WestConnect,WestConnect_South,MTN,NM,western,USA,mountain,NM_WestConnect,10025,138,700028,10025,500345,0.0,New 500/230 kV 2W Transformer,2.0,0.0,0.12,0,2000.0,2000.0,Y,2TF,,,,,,,10025
230,20037591,KE_SOUTH_37591,40.60932,-122.444219,,230.0,0.0,PQ,30_WECC,"POINT(40.60932,-122.444219)",p9,WECC_CA,CAISO,CAISO_N,PA,CA,western,USA,pacific,CA_N_CAISO,37591,253,700050,37591,500230,0.0,New 500/230 kV 2W Transformer,1.0,0.0,0.12,0,2000.0,2000.0,Y,2TF,,,,,,,37591
231,20037591,KE_SOUTH_37591,40.60932,-122.444219,,230.0,0.0,PQ,30_WECC,"POINT(40.60932,-122.444219)",p9,WECC_CA,CAISO,CAISO_N,PA,CA,western,USA,pacific,CA_N_CAISO,37591,254,700050,37591,500230,0.0,New 500/230 kV 2W Transformer,2.0,0.0,0.12,0,2000.0,2000.0,Y,2TF,,,,,,,37591
232,20024087,MAGUNDEN_24087,35.361198,-118.922396,,230.0,0.0,PQ,24_WECC,"POINT(35.361198,-118.922396)",p10,WECC_CA,CAISO,CAISO_S,PA,CA,western,USA,pacific,CA_S_CAISO,24087,230,700044,24087,500230,0.0,New 500/230 kV 2W Transformer,1.0,0.0,0.12,0,2000.0,2000.0,Y,2TF,,,,,,,24087
233,20024087,MAGUNDEN_24087,35.361198,-118.922396,,230.0,0.0,PQ,24_WECC,"POINT(35.361198,-118.922396)",p10,WECC_CA,CAISO,CAISO_S,PA,CA,western,USA,pacific,CA_S_CAISO,24087,231,700044,24087,500230,0.0,New 500/230 kV 2W Transformer,2.0,0.0,0.12,0,2000.0,2000.0,Y,2TF,,,,,,,24087
234,20010870,CLNCRN_1_10870,34.71849,-105.34376,,345.0,0.0,PQ,10_WECC,"POINT(34.71849,-105.34376)",p31,WECC_SRSG,WestConnect,WestConnect_South,MTN,NM,western,USA,mountain,NM_WestConnect,10870,153,700033,10870,500345,0.0,New 500/230 kV 2W Transformer,1.0,0.0,0.12,0,2000.0,2000.0,Y,2TF,,,,,,,10870
235,20010870,CLNCRN_1_10870,34.71849,-105.34376,,345.0,0.0,PQ,10_WECC,"POINT(34.71849,-105.34376)",p31,WECC_SRSG,WestConnect,WestConnect_South,MTN,NM,western,USA,mountain,NM_WestConnect,10870,154,700033,10870,500345,0.0,New 500/230 kV 2W Transformer,2.0,0.0,0.12,0,2000.0,2000.0,Y,2TF,,,,,,,10870
236,20073551,W CANON_73551,38.505305,-105.320455,,230.0,0.0,PQ,73_WECC,"POINT(38.505305,-105.320455)",p34,WECC_NWPP,WestConnect,WestConnect_North,MTN,CO,western,USA,mountain,CO,73551,215,700043,73551,345230,0.0,New 345/230 kV 2W Transformer,1.0,0.0,0.12,0,2000.0,2000.0,Y,2TF,,,,,,,73551
237,20073551,W CANON_73551,38.505305,-105.320455,,230.0,0.0,PQ,73_WECC,"POINT(38.505305,-105.320455)",p34,WECC_NWPP,WestConnect,WestConnect_North,MTN,CO,western,USA,mountain,CO,73551,216,700043,73551,345230,0.0,New 345/230 kV 2W Transformer,2.0,0.0,0.12,0,2000.0,2000.0,Y,2TF,,,,,,,73551
238,20030430,FULTON_30430,38.5,-122.76,,230.0,0.0,PQ,30_WECC,"POINT(38.5,-122.76)",p9,WECC_CA,CAISO,CAISO_N,PA,CA,western,USA,pacific,CA_N_CAISO,30430,257,700051,30430,500230,0.0,New 500/230 kV 2W Transformer,1.0,0.0,0.12,0,2000.0,2000.0,Y,2TF,,,,,,,30430
239,20030430,FULTON_30430,38.5,-122.76,,230.0,0.0,PQ,30_WECC,"POINT(38.5,-122.76)",p9,WECC_CA,CAISO,CAISO_N,PA,CA,western,USA,pacific,CA_N_CAISO,30430,258,700051,30430,500230,0.0,New 500/230 kV 2W Transformer,2.0,0.0,0.12,0,2000.0,2000.0,Y,2TF,,,,,,,30430
240,20066750,YELOWTLP_66750,45.31,-107.95,,230.0,0.0,PQ,65_WECC,"POINT(45.31,-107.95)",p18,WECC_NWPP,NorthernGrid,NorthernGrid_East,MTN,MT,western,USA,mountain,MT_NorthernGrid,66750,77,700018,66750,500230,0.0,New 500/230 kV 2W Transformer,1.0,0.0,0.12,0,2000.0,2000.0,Y,2TF,,,,,,,66750
241,20066750,YELOWTLP_66750,45.31,-107.95,,230.0,0.0,PQ,65_WECC,"POINT(45.31,-107.95)",p18,WECC_NWPP,NorthernGrid,NorthernGrid_East,MTN,MT,western,USA,mountain,MT_NorthernGrid,66750,78,700018,66750,500230,0.0,New 500/230 kV 2W Transformer,2.0,0.0,0.12,0,2000.0,2000.0,Y,2TF,,,,,,,66750
242,20030515,WARNERVL_30515,37.741928,-120.80299,,230.0,0.0,PQ,30_WECC,"POINT(37.741928,-120.80299)",p9,WECC_CA,CAISO,CAISO_N,PA,CA,western,USA,pacific,CA_N_CAISO,30515,243,700047,30515,500230,0.0,New 500/230 kV 2W Transformer,1.0,0.0,0.12,0,2000.0,2000.0,Y,2TF,,,,,,,30515
243,20030515,WARNERVL_30515,37.741928,-120.80299,,230.0,0.0,PQ,30_WECC,"POINT(37.741928,-120.80299)",p9,WECC_CA,CAISO,CAISO_N,PA,CA,western,USA,pacific,CA_N_CAISO,30515,244,700047,30515,500230,0.0,New 500/230 kV 2W Transformer,2.0,0.0,0.12,0,2000.0,2000.0,Y,2TF,,,,,,,30515
244,20011047,MACHOSPG_11047,32.53844,-107.493524,,345.0,0.0,PQ,11_WECC,"POINT(32.53844,-107.493524)",p31,WECC_SRSG,WestConnect,WestConnect_South,MTN,NM,western,USA,mountain,NM_WestConnect,11047,158,700034,11047,500345,0.0,New 500/230 kV 2W Transformer,1.0,0.0,0.12,0,2000.0,2000.0,Y,2TF,,,,,,,11047
245,20011047,MACHOSPG_11047,32.53844,-107.493524,,345.0,0.0,PQ,11_WECC,"POINT(32.53844,-107.493524)",p31,WECC_SRSG,WestConnect,WestConnect_South,MTN,NM,western,USA,mountain,NM_WestConnect,11047,159,700034,11047,500345,0.0,New 500/230 kV 2W Transformer,2.0,0.0,0.12,0,2000.0,2000.0,Y,2TF,,,,,,,11047
246,20026043,INTERMT_26043,39.503186,-112.583491,,345.0,0.0,PQ,26_WECC,"POINT(39.503186,-112.583491)",p25,WECC_NWPP,NorthernGrid,NorthernGrid_South,MTN,UT,western,USA,mountain,UT,26043,61,700015,26043,500345,0.0,New 500/230 kV 2W Transformer,1.0,0.0,0.12,0,2000.0,2000.0,Y,2TF,,,,,,,26043
247,20026043,INTERMT_26043,39.503186,-112.583491,,345.0,0.0,PQ,26_WECC,"POINT(39.503186,-112.583491)",p25,WECC_NWPP,NorthernGrid,NorthernGrid_South,MTN,UT,western,USA,mountain,UT,26043,62,700015,26043,500345,0.0,New 500/230 kV 2W Transformer,2.0,0.0,0.12,0,2000.0,2000.0,Y,2TF,,,,,,,26043
248,20067790,POPULUS_67790,42.426197,-112.158942,,345.0,0.0,PQ,65_WECC,"POINT(42.426197,-112.158942)",p16,WECC_NWPP,NorthernGrid,NorthernGrid_East,MTN,ID,western,USA,mountain,ID,67790,95,700021,67790,500230,0.0,New 500/230 kV 2W Transformer,1.0,0.0,0.12,0,2000.0,2000.0,Y,2TF,,,,,,,67790
249,20067790,POPULUS_67790,42.426197,-112.158942,,345.0,0.0,PQ,65_WECC,"POINT(42.426197,-112.158942)",p16,WECC_NWPP,NorthernGrid,NorthernGrid_East,MTN,ID,western,USA,mountain,ID,67790,96,700021,67790,500230,0.0,New 500/230 kV 2W Transformer,2.0,0.0,0.12,0,2000.0,2000.0,Y,2TF,,,,,,,67790
250,20064054,FT CHUR_64054,39.131058,-119.131935,,230.0,0.0,PQ,64_WECC,"POINT(39.131058,-119.131935)",p12,WECC_NWPP,NorthernGrid,NorthernGrid_South,MTN,NV,western,USA,mountain,NV,64054,43,700010,64054,500230,0.0,New 500/230 kV 2W Transformer,1.0,0.0,0.12,0,2000.0,2000.0,Y,2TF,,,,,,,64054
251,20064054,FT CHUR_64054,39.131058,-119.131935,,230.0,0.0,PQ,64_WECC,"POINT(39.131058,-119.131935)",p12,WECC_NWPP,NorthernGrid,NorthernGrid_South,MTN,NV,western,USA,mountain,NV,64054,44,700010,64054,500230,0.0,New 500/230 kV 2W Transformer,2.0,0.0,0.12,0,2000.0,2000.0,Y,2TF,,,,,,,64054
252,20030810,GREGG_30810,36.853569,-119.918048,,230.0,0.0,PQ,30_WECC,"POINT(36.853569,-119.918048)",p9,WECC_CA,CAISO,CAISO_N,PA,CA,western,USA,pacific,CA_N_CAISO,30810,239,700046,30810,500230,0.0,New 500/230 kV 2W Transformer,1.0,0.0,0.12,0,2000.0,2000.0,Y,2TF,,,,,,,30810
253,20030810,GREGG_30810,36.853569,-119.918048,,230.0,0.0,PQ,30_WECC,"POINT(36.853569,-119.918048)",p9,WECC_CA,CAISO,CAISO_N,PA,CA,western,USA,pacific,CA_N_CAISO,30810,240,700046,30810,500230,0.0,New 500/230 kV 2W Transformer,2.0,0.0,0.12,0,2000.0,2000.0,Y,2TF,,,,,,,30810
254,20060045,BOISEBCH_60045,43.560415,-116.160712,,230.0,0.0,PQ,60_WECC,"POINT(43.560415,-116.160712)",p15,WECC_NWPP,NorthernGrid,NorthernGrid_East,MTN,ID,western,USA,mountain,ID,60045,283,700054,60045,500230,0.0,New 500/230 kV 2W Transformer,1.0,0.0,0.12,0,2000.0,2000.0,Y,2TF,,,,,,,60045
255,20060045,BOISEBCH_60045,43.560415,-116.160712,,230.0,0.0,PQ,60_WECC,"POINT(43.560415,-116.160712)",p15,WECC_NWPP,NorthernGrid,NorthernGrid_East,MTN,ID,western,USA,mountain,ID,60045,284,700054,60045,500230,0.0,New 500/230 kV 2W Transformer,2.0,0.0,0.12,0,2000.0,2000.0,Y,2TF,,,,,,,60045
256,20011093,LUNA_11093,32.303757,-107.779403,,345.0,0.0,PQ,11_WECC,"POINT(32.303757,-107.779403)",p31,WECC_SRSG,WestConnect,WestConnect_South,MTN,NM,western,USA,mountain,NM_WestConnect,11093,165,700036,11093,500345,0.0,New 500/230 kV 2W Transformer,1.0,0.0,0.12,0,2000.0,2000.0,Y,2TF,,,,,,,11093
257,20011093,LUNA_11093,32.303757,-107.779403,,345.0,0.0,PQ,11_WECC,"POINT(32.303757,-107.779403)",p31,WECC_SRSG,WestConnect,WestConnect_South,MTN,NM,western,USA,mountain,NM_WestConnect,11093,166,700036,11093,500345,0.0,New 500/230 kV 2W Transformer,2.0,0.0,0.12,0,2000.0,2000.0,Y,2TF,,,,,,,11093
258,20064500,SALTWELL T_64500,39.31104,-118.63042,,230.0,0.0,PQ,64_WECC,"POINT(39.31104,-118.63042)",p12,WECC_NWPP,NorthernGrid,NorthernGrid_South,MTN,NV,western,USA,mountain,NV,64500,54,700014,64500,500230,0.0,New 500/230 kV 2W Transformer,1.0,0.0,0.12,0,2000.0,2000.0,Y,2TF,,,,,,,64500
259,20064500,SALTWELL T_64500,39.31104,-118.63042,,230.0,0.0,PQ,64_WECC,"POINT(39.31104,-118.63042)",p12,WECC_NWPP,NorthernGrid,NorthernGrid_South,MTN,NV,western,USA,mountain,NV,64500,55,700014,64500,500230,0.0,New 500/230 kV 2W Transformer,2.0,0.0,0.12,0,2000.0,2000.0,Y,2TF,,,,,,,64500
260,20024235,RECTOR_24235,36.304614,-119.245369,,230.0,0.0,PQ,24_WECC,"POINT(36.304614,-119.245369)",p10,WECC_CA,CAISO,CAISO_S,PA,CA,western,USA,pacific,CA_S_CAISO,24235,234,700045,24235,500230,0.0,New 500/230 kV 2W Transformer,1.0,0.0,0.12,0,2000.0,2000.0,Y,2TF,,,,,,,24235
261,20024235,RECTOR_24235,36.304614,-119.245369,,230.0,0.0,PQ,24_WECC,"POINT(36.304614,-119.245369)",p10,WECC_CA,CAISO,CAISO_S,PA,CA,western,USA,pacific,CA_S_CAISO,24235,235,700045,24235,500230,0.0,New 500/230 kV 2W Transformer,2.0,0.0,0.12,0,2000.0,2000.0,Y,2TF,,,,,,,24235
262,20019500,HASSYTAP_19500,33.508289,-113.031936,,230.0,0.0,PQ,19_WECC,"POINT(33.508289,-113.031936)",p28,WECC_SRSG,WestConnect,WestConnect_South,MTN,AZ,western,USA,mountain,AZ,19500,180,700039,19500,500230,0.0,New 500/230 kV 2W Transformer,1.0,0.0,0.12,0,2000.0,2000.0,Y,2TF,,,,,,,19500
263,20019500,HASSYTAP_19500,33.508289,-113.031936,,230.0,0.0,PQ,19_WECC,"POINT(33.508289,-113.031936)",p28,WECC_SRSG,WestConnect,WestConnect_South,MTN,AZ,western,USA,mountain,AZ,19500,181,700039,19500,500230,0.0,New 500/230 kV 2W Transformer,2.0,0.0,0.12,0,2000.0,2000.0,Y,2TF,,,,,,,19500
264,20040123,BOARD T2_40123,45.845986,-119.648816,,230.0,0.0,PQ,40_WECC,"POINT(45.845986,-119.648816)",p5,WECC_NWPP,NorthernGrid,NorthernGrid_West,PA,OR,western,USA,pacific,OR,40123,2,700001,40123,500230,0.0,New 500/230 kV 2W Transformer,1.0,0.0,0.12,0,2000.0,2000.0,Y,2TF,,,,,,,40123
265,20040123,BOARD T2_40123,45.845986,-119.648816,,230.0,0.0,PQ,40_WECC,"POINT(45.845986,-119.648816)",p5,WECC_NWPP,NorthernGrid,NorthernGrid_West,PA,OR,western,USA,pacific,OR,40123,3,700001,40123,500230,0.0,New 500/230 kV 2W Transformer,2.0,0.0,0.12,0,2000.0,2000.0,Y,2TF,,,,,,,40123
