node_id,node_name,latitude,longitude,reeds_ba,voltage,load_participation_factor,bus_type,area,geometry,ReEDS_Region_UPDATE,nercr,transreg,subFERC,cendiv,st,interconnect,country,usda,aggreg,last_digits_node_id,id,FromBus,ToBus,Vn [kV],Length[km],Remarks,CKT,R [pu],X [pu],B [pu],Rate1[MVA],Rate2[MVA],Add [Y/N],Type,GeomCode,Conductor,Area,ReEDS_Region,Longitude,Latitude,last_digits_ToBus
30001074,WINKSS_8    -1074,31.763728,-103.145491,,138.0,0.0,PQ,1074_ERCOT,"POINT(31.763728,-103.145491)",p62,ERCOT,ERCOT,ERCOT_W,WSC,TX,texas,USA,southern-plains,TX_W_ERCOT,1074,2,700001,1074,345138,0.0,New 345/138 kV 2W Transformer,1.0,0.0,0.12,0,2000,2000,Y,2TF,,,,,,,1074
30001074,WINKSS_8    -1074,31.763728,-103.145491,,138.0,0.0,PQ,1074_ERCOT,"POINT(31.763728,-103.145491)",p62,ERCOT,ERCOT,ERCOT_W,WSC,TX,texas,USA,southern-plains,TX_W_ERCOT,1074,3,700001,1074,345138,0.0,New 345/138 kV 2W Transformer,2.0,0.0,0.12,0,2000,2000,Y,2TF,,,,,,,1074
30001104,SANDHILL_8  -1104,31.529458,-102.672152,,138.0,0.005240634,PQ,1104_ERCOT,"POINT(31.529458,-102.672152)",p62,ERCOT,ERCOT,ERCOT_W,WSC,TX,texas,USA,southern-plains,TX_W_ERCOT,1104,5,700002,1104,345138,0.0,New 345/138 kV 2W Transformer,1.0,0.0,0.12,0,2000,2000,Y,2TF,,,,,,,1104
30001104,SANDHILL_8  -1104,31.529458,-102.672152,,138.0,0.005240634,PQ,1104_ERCOT,"POINT(31.529458,-102.672152)",p62,ERCOT,ERCOT,ERCOT_W,WSC,TX,texas,USA,southern-plains,TX_W_ERCOT,1104,6,700002,1104,345138,0.0,New 345/138 kV 2W Transformer,2.0,0.0,0.12,0,2000,2000,Y,2TF,,,,,,,1104
30001469,SUNSETSW_8  -1469,33.429051,-97.838746,,138.0,0.0,PQ,1469_ERCOT,"POINT(33.429051,-97.838746)",p63,ERCOT,ERCOT,ERCOT_N,WSC,TX,texas,USA,southern-plains,TX_N_ERCOT,1469,255,700033,1469,345138,0.0,New 345/138 kV 2W Transformer,1.0,0.0,0.12,0,2000,2000,Y,2TF,,,,,,,1469
30001469,SUNSETSW_8  -1469,33.429051,-97.838746,,138.0,0.0,PQ,1469_ERCOT,"POINT(33.429051,-97.838746)",p63,ERCOT,ERCOT,ERCOT_N,WSC,TX,texas,USA,southern-plains,TX_N_ERCOT,1469,256,700033,1469,345138,0.0,New 345/138 kV 2W Transformer,2.0,0.0,0.12,0,2000,2000,Y,2TF,,,,,,,1469
30005200,HELOTES     -5200,29.548793,-98.681926,,138.0,0.00888661,PQ,5200_ERCOT,"POINT(29.548793,-98.681926)",p65,ERCOT,ERCOT,ERCOT_S,WSC,TX,texas,USA,southern-plains,TX_S_ERCOT,5200,188,700027,5200,345138,0.0,New 345/138 kV 2W Transformer,1.0,0.0,0.12,0,2000,2000,Y,2TF,,,,,,,5200
30005200,HELOTES     -5200,29.548793,-98.681926,,138.0,0.00888661,PQ,5200_ERCOT,"POINT(29.548793,-98.681926)",p65,ERCOT,ERCOT,ERCOT_S,WSC,TX,texas,USA,southern-plains,TX_S_ERCOT,5200,189,700027,5200,345138,0.0,New 345/138 kV 2W Transformer,2.0,0.0,0.12,0,2000,2000,Y,2TF,,,,,,,5200
30005502,RAYBURN8    -5502,28.893031,-97.133047,,138.0,0.0,PQ,5502_ERCOT,"POINT(28.893031,-97.133047)",p65,ERCOT,ERCOT,ERCOT_S,WSC,TX,texas,USA,southern-plains,TX_S_ERCOT,5502,112,700017,5502,345138,0.0,New 345/138 kV 2W Transformer,1.0,0.0,0.12,0,2000,2000,Y,2TF,,,,,,,5502
30005502,RAYBURN8    -5502,28.893031,-97.133047,,138.0,0.0,PQ,5502_ERCOT,"POINT(28.893031,-97.133047)",p65,ERCOT,ERCOT,ERCOT_S,WSC,TX,texas,USA,southern-plains,TX_S_ERCOT,5502,113,700017,5502,345138,0.0,New 345/138 kV 2W Transformer,2.0,0.0,0.12,0,2000,2000,Y,2TF,,,,,,,5502
30005728,CHOATESUB8  -5728,28.79802,-97.76138,,138.0,0.0,PQ,5728_ERCOT,"POINT(28.79802,-97.76138)",p65,ERCOT,ERCOT,ERCOT_S,WSC,TX,texas,USA,southern-plains,TX_S_ERCOT,5728,107,700016,5728,345138,0.0,New 345/138 kV 2W Transformer,1.0,0.0,0.12,0,2000,2000,Y,2TF,,,,,,,5728
30005728,CHOATESUB8  -5728,28.79802,-97.76138,,138.0,0.0,PQ,5728_ERCOT,"POINT(28.79802,-97.76138)",p65,ERCOT,ERCOT,ERCOT_S,WSC,TX,texas,USA,southern-plains,TX_S_ERCOT,5728,108,700016,5728,345138,0.0,New 345/138 kV 2W Transformer,2.0,0.0,0.12,0,2000,2000,Y,2TF,,,,,,,5728
30005827,MOORESW8    -5827,29.077257,-99.045925,,138.0,0.0,PQ,5827_ERCOT,"POINT(29.077257,-99.045925)",p65,ERCOT,ERCOT,ERCOT_S,WSC,TX,texas,USA,southern-plains,TX_S_ERCOT,5827,75,700013,5827,345138,0.0,New 345/138 kV 2W Transformer,1.0,0.0,0.12,0,2000,2000,Y,2TF,,,,,,,5827
30005827,MOORESW8    -5827,29.077257,-99.045925,,138.0,0.0,PQ,5827_ERCOT,"POINT(29.077257,-99.045925)",p65,ERCOT,ERCOT,ERCOT_S,WSC,TX,texas,USA,southern-plains,TX_S_ERCOT,5827,76,700013,5827,345138,0.0,New 345/138 kV 2W Transformer,2.0,0.0,0.12,0,2000,2000,Y,2TF,,,,,,,5827
30006365,YELWJCKT4B  -6365,30.932036,-99.785554,,138.0,0.0,PQ,6365_ERCOT,"POINT(30.932036,-99.785554)",p64,ERCOT,ERCOT,ERCOT_S,WSC,TX,texas,USA,southern-plains,TX_S_ERCOT,6365,199,700029,6365,345138,0.0,New 345/138 kV 2W Transformer,1.0,0.0,0.12,0,2000,2000,Y,2TF,,,,,,,6365
30006365,YELWJCKT4B  -6365,30.932036,-99.785554,,138.0,0.0,PQ,6365_ERCOT,"POINT(30.932036,-99.785554)",p64,ERCOT,ERCOT,ERCOT_S,WSC,TX,texas,USA,southern-plains,TX_S_ERCOT,6365,200,700029,6365,345138,0.0,New 345/138 kV 2W Transformer,2.0,0.0,0.12,0,2000,2000,Y,2TF,,,,,,,6365
30006390,FIREROCK4A  -6390,31.77602,-99.25037,,138.0,0.0,PQ,6390_ERCOT,"POINT(31.77602,-99.25037)",p61,ERCOT,ERCOT,ERCOT_W,WSC,TX,texas,USA,southern-plains,TX_W_ERCOT,6390,204,700030,76390,345138,0.0,New 345/138 kV 2W Transformer,1.0,0.0,0.12,0,2000,2000,Y,2TF,,,,,,,6390
30006390,FIREROCK4A  -6390,31.77602,-99.25037,,138.0,0.0,PQ,6390_ERCOT,"POINT(31.77602,-99.25037)",p61,ERCOT,ERCOT,ERCOT_W,WSC,TX,texas,USA,southern-plains,TX_W_ERCOT,6390,205,700030,76390,345138,0.0,New 345/138 kV 2W Transformer,2.0,0.0,0.12,0,2000,2000,Y,2TF,,,,,,,6390
30076390,L_FORTMA8_1N-76390,30.738315,-99.2323,,138.0,0.0,PQ,76390_ERCOT,"POINT(30.738315,-99.2323)",p64,ERCOT,ERCOT,ERCOT_S,WSC,TX,texas,USA,southern-plains,TX_S_ERCOT,6390,204,700030,76390,345138,0.0,New 345/138 kV 2W Transformer,1.0,0.0,0.12,0,2000,2000,Y,2TF,,,,,,,6390
30076390,L_FORTMA8_1N-76390,30.738315,-99.2323,,138.0,0.0,PQ,76390_ERCOT,"POINT(30.738315,-99.2323)",p64,ERCOT,ERCOT,ERCOT_S,WSC,TX,texas,USA,southern-plains,TX_S_ERCOT,6390,205,700030,76390,345138,0.0,New 345/138 kV 2W Transformer,2.0,0.0,0.12,0,2000,2000,Y,2TF,,,,,,,6390
30006480,SAPS4A      -6480,31.395745,-100.493373,,138.0,0.0,PQ,6480_ERCOT,"POINT(31.395745,-100.493373)",p61,ERCOT,ERCOT,ERCOT_W,WSC,TX,texas,USA,southern-plains,TX_W_ERCOT,6480,194,700028,6480,345138,0.0,New 345/138 kV 2W Transformer,1.0,0.0,0.12,0,2000,2000,Y,2TF,,,,,,,6480
30006480,SAPS4A      -6480,31.395745,-100.493373,,138.0,0.0,PQ,6480_ERCOT,"POINT(31.395745,-100.493373)",p61,ERCOT,ERCOT,ERCOT_W,WSC,TX,texas,USA,southern-plains,TX_W_ERCOT,6480,195,700028,6480,345138,0.0,New 345/138 kV 2W Transformer,2.0,0.0,0.12,0,2000,2000,Y,2TF,,,,,,,6480
30006515,SONR4A      -6515,30.568055,-100.65608,,138.0,0.004654631,PQ,6515_ERCOT,"POINT(30.568055,-100.65608)",p61,ERCOT,ERCOT,ERCOT_W,WSC,TX,texas,USA,southern-plains,TX_W_ERCOT,6515,36,700007,6515,345138,0.0,New 345/138 kV 2W Transformer,1.0,0.0,0.12,0,2000,2000,Y,2TF,,,,,,,6515
30006515,SONR4A      -6515,30.568055,-100.65608,,138.0,0.004654631,PQ,6515_ERCOT,"POINT(30.568055,-100.65608)",p61,ERCOT,ERCOT,ERCOT_W,WSC,TX,texas,USA,southern-plains,TX_W_ERCOT,6515,37,700007,6515,345138,0.0,New 345/138 kV 2W Transformer,2.0,0.0,0.12,0,2000,2000,Y,2TF,,,,,,,6515
30006535,BGLK4A      -6535,31.185681,-101.461981,,138.0,0.005983278,PQ,6535_ERCOT,"POINT(31.185681,-101.461981)",p62,ERCOT,ERCOT,ERCOT_W,WSC,TX,texas,USA,southern-plains,TX_W_ERCOT,6535,48,700009,6535,345138,0.0,New 345/138 kV 2W Transformer,1.0,0.0,0.12,0,2000,2000,Y,2TF,,,,,,,6535
30006535,BGLK4A      -6535,31.185681,-101.461981,,138.0,0.005983278,PQ,6535_ERCOT,"POINT(31.185681,-101.461981)",p62,ERCOT,ERCOT,ERCOT_W,WSC,TX,texas,USA,southern-plains,TX_W_ERCOT,6535,49,700009,6535,345138,0.0,New 345/138 kV 2W Transformer,2.0,0.0,0.12,0,2000,2000,Y,2TF,,,,,,,6535
30006562,FDRAN4A     -6562,30.708535,-101.143559,,138.0,0.0,PQ,6562_ERCOT,"POINT(30.708535,-101.143559)",p61,ERCOT,ERCOT,ERCOT_W,WSC,TX,texas,USA,southern-plains,TX_W_ERCOT,6562,31,700006,6562,345138,0.0,New 345/138 kV 2W Transformer,1.0,0.0,0.12,0,2000,2000,Y,2TF,,,,,,,6562
30006562,FDRAN4A     -6562,30.708535,-101.143559,,138.0,0.0,PQ,6562_ERCOT,"POINT(30.708535,-101.143559)",p61,ERCOT,ERCOT,ERCOT_W,WSC,TX,texas,USA,southern-plains,TX_W_ERCOT,6562,32,700006,6562,345138,0.0,New 345/138 kV 2W Transformer,2.0,0.0,0.12,0,2000,2000,Y,2TF,,,,,,,6562
30006601,RIOP4A      -6601,31.085441,-102.366479,,138.0,0.0,PQ,6601_ERCOT,"POINT(31.085441,-102.366479)",p61,ERCOT,ERCOT,ERCOT_W,WSC,TX,texas,USA,southern-plains,TX_W_ERCOT,6601,56,700010,6601,345138,0.0,New 345/138 kV 2W Transformer,1.0,0.0,0.12,0,2000,2000,Y,2TF,,,,,,,6601
30006601,RIOP4A      -6601,31.085441,-102.366479,,138.0,0.0,PQ,6601_ERCOT,"POINT(31.085441,-102.366479)",p61,ERCOT,ERCOT,ERCOT_W,WSC,TX,texas,USA,southern-plains,TX_W_ERCOT,6601,57,700010,6601,345138,0.0,New 345/138 kV 2W Transformer,2.0,0.0,0.12,0,2000,2000,Y,2TF,,,,,,,6601
30006655,BARL4A      -6655,30.947338,-103.365523,,138.0,0.0,PQ,6655_ERCOT,"POINT(30.947338,-103.365523)",p61,ERCOT,ERCOT,ERCOT_W,WSC,TX,texas,USA,southern-plains,TX_W_ERCOT,6655,12,700003,6655,345138,0.0,New 345/138 kV 2W Transformer,1.0,0.0,0.12,0,2000,2000,Y,2TF,,,,,,,6655
30006655,BARL4A      -6655,30.947338,-103.365523,,138.0,0.0,PQ,6655_ERCOT,"POINT(30.947338,-103.365523)",p61,ERCOT,ERCOT,ERCOT_W,WSC,TX,texas,USA,southern-plains,TX_W_ERCOT,6655,13,700003,6655,345138,0.0,New 345/138 kV 2W Transformer,2.0,0.0,0.12,0,2000,2000,Y,2TF,,,,,,,6655
30006671,TOMBSTNE4A  -6671,31.002533,-102.679222,,138.0,0.0,PQ,6671_ERCOT,"POINT(31.002533,-102.679222)",p61,ERCOT,ERCOT,ERCOT_W,WSC,TX,texas,USA,southern-plains,TX_W_ERCOT,6671,17,700004,6671,345138,0.0,New 345/138 kV 2W Transformer,1.0,0.0,0.12,0,2000,2000,Y,2TF,,,,,,,6671
30006671,TOMBSTNE4A  -6671,31.002533,-102.679222,,138.0,0.0,PQ,6671_ERCOT,"POINT(31.002533,-102.679222)",p61,ERCOT,ERCOT,ERCOT_W,WSC,TX,texas,USA,southern-plains,TX_W_ERCOT,6671,18,700004,6671,345138,0.0,New 345/138 kV 2W Transformer,2.0,0.0,0.12,0,2000,2000,Y,2TF,,,,,,,6671
30007126,L_FERGUS8_1Y-7126,30.555542,-98.371086,,138.0,0.0,PQ,7126_ERCOT,"POINT(30.555542,-98.371086)",p64,ERCOT,ERCOT,ERCOT_S,WSC,TX,texas,USA,southern-plains,TX_S_ERCOT,7126,211,700031,7126,345138,0.0,New 345/138 kV 2W Transformer,1.0,0.0,0.12,0,2000,2000,Y,2TF,,,,,,,7126
30007126,L_FERGUS8_1Y-7126,30.555542,-98.371086,,138.0,0.0,PQ,7126_ERCOT,"POINT(30.555542,-98.371086)",p64,ERCOT,ERCOT,ERCOT_S,WSC,TX,texas,USA,southern-plains,TX_S_ERCOT,7126,212,700031,7126,345138,0.0,New 345/138 kV 2W Transformer,2.0,0.0,0.12,0,2000,2000,Y,2TF,,,,,,,7126
30007356,L_MARSFO8_1Y-7356,30.390025,-97.907519,,138.0,0.0,PQ,7356_ERCOT,"POINT(30.390025,-97.907519)",p64,ERCOT,ERCOT,ERCOT_S,WSC,TX,texas,USA,southern-plains,TX_S_ERCOT,7356,228,700032,7356,345138,0.0,New 345/138 kV 2W Transformer,1.0,0.0,0.12,0,2000,2000,Y,2TF,,,,,,,7356
30007356,L_MARSFO8_1Y-7356,30.390025,-97.907519,,138.0,0.0,PQ,7356_ERCOT,"POINT(30.390025,-97.907519)",p64,ERCOT,ERCOT,ERCOT_S,WSC,TX,texas,USA,southern-plains,TX_S_ERCOT,7356,229,700032,7356,345138,0.0,New 345/138 kV 2W Transformer,2.0,0.0,0.12,0,2000,2000,Y,2TF,,,,,,,7356
30008125,LOLITA4A    -8125,28.851783,-96.557448,,138.0,7.43e-05,PQ,8125_ERCOT,"POINT(28.851783,-96.557448)",p65,ERCOT,ERCOT,ERCOT_S,WSC,TX,texas,USA,southern-plains,TX_S_ERCOT,8125,129,700020,8125,345138,0.0,New 345/138 kV 2W Transformer,1.0,0.0,0.12,0,2000,2000,Y,2TF,,,,,,,8125
30008125,LOLITA4A    -8125,28.851783,-96.557448,,138.0,7.43e-05,PQ,8125_ERCOT,"POINT(28.851783,-96.557448)",p65,ERCOT,ERCOT,ERCOT_S,WSC,TX,texas,USA,southern-plains,TX_S_ERCOT,8125,130,700020,8125,345138,0.0,New 345/138 kV 2W Transformer,2.0,0.0,0.12,0,2000,2000,Y,2TF,,,,,,,8125
30008162,COLETO4A    -8162,28.717549,-97.212866,,138.0,0.0,PQ,8162_ERCOT,"POINT(28.717549,-97.212866)",p65,ERCOT,ERCOT,ERCOT_S,WSC,TX,texas,USA,southern-plains,TX_S_ERCOT,8162,122,700019,8162,345138,0.0,New 345/138 kV 2W Transformer,1.0,0.0,0.12,0,2000,2000,Y,2TF,,,,,,,8162
30008162,COLETO4A    -8162,28.717549,-97.212866,,138.0,0.0,PQ,8162_ERCOT,"POINT(28.717549,-97.212866)",p65,ERCOT,ERCOT,ERCOT_S,WSC,TX,texas,USA,southern-plains,TX_S_ERCOT,8162,123,700019,8162,345138,0.0,New 345/138 kV 2W Transformer,2.0,0.0,0.12,0,2000,2000,Y,2TF,,,,,,,8162
30008172,VICTORIA4A  -8172,28.787127,-97.011236,,138.0,0.0,PQ,8172_ERCOT,"POINT(28.787127,-97.011236)",p65,ERCOT,ERCOT,ERCOT_S,WSC,TX,texas,USA,southern-plains,TX_S_ERCOT,8172,117,700018,8172,345138,0.0,New 345/138 kV 2W Transformer,1.0,0.0,0.12,0,2000,2000,Y,2TF,,,,,,,8172
30008172,VICTORIA4A  -8172,28.787127,-97.011236,,138.0,0.0,PQ,8172_ERCOT,"POINT(28.787127,-97.011236)",p65,ERCOT,ERCOT,ERCOT_S,WSC,TX,texas,USA,southern-plains,TX_S_ERCOT,8172,118,700018,8172,345138,0.0,New 345/138 kV 2W Transformer,2.0,0.0,0.12,0,2000,2000,Y,2TF,,,,,,,8172
30008193,LYSSY4A     -8193,28.94446,-98.17402,,138.0,0.0,PQ,8193_ERCOT,"POINT(28.94446,-98.17402)",p65,ERCOT,ERCOT,ERCOT_S,WSC,TX,texas,USA,southern-plains,TX_S_ERCOT,8193,97,700015,8193,345138,0.0,New 345/138 kV 2W Transformer,1.0,0.0,0.12,0,2000,2000,Y,2TF,,,,,,,8193
30008193,LYSSY4A     -8193,28.94446,-98.17402,,138.0,0.0,PQ,8193_ERCOT,"POINT(28.94446,-98.17402)",p65,ERCOT,ERCOT,ERCOT_S,WSC,TX,texas,USA,southern-plains,TX_S_ERCOT,8193,98,700015,8193,345138,0.0,New 345/138 kV 2W Transformer,2.0,0.0,0.12,0,2000,2000,Y,2TF,,,,,,,8193
30008203,PLEASANT4A  -8203,28.99057,-98.438532,,138.0,0.001324584,PQ,8203_ERCOT,"POINT(28.99057,-98.438532)",p65,ERCOT,ERCOT,ERCOT_S,WSC,TX,texas,USA,southern-plains,TX_S_ERCOT,8203,80,700014,8203,345138,0.0,New 345/138 kV 2W Transformer,1.0,0.0,0.12,0,2000,2000,Y,2TF,,,,,,,8203
30008203,PLEASANT4A  -8203,28.99057,-98.438532,,138.0,0.001324584,PQ,8203_ERCOT,"POINT(28.99057,-98.438532)",p65,ERCOT,ERCOT,ERCOT_S,WSC,TX,texas,USA,southern-plains,TX_S_ERCOT,8203,81,700014,8203,345138,0.0,New 345/138 kV 2W Transformer,2.0,0.0,0.12,0,2000,2000,Y,2TF,,,,,,,8203
30008234,UVALDE4A    -8234,29.214148,-99.799176,,138.0,0.001539947,PQ,8234_ERCOT,"POINT(29.214148,-99.799176)",p65,ERCOT,ERCOT,ERCOT_S,WSC,TX,texas,USA,southern-plains,TX_S_ERCOT,8234,68,700012,8234,345138,0.0,New 345/138 kV 2W Transformer,1.0,0.0,0.12,0,2000,2000,Y,2TF,,,,,,,8234
30008234,UVALDE4A    -8234,29.214148,-99.799176,,138.0,0.001539947,PQ,8234_ERCOT,"POINT(29.214148,-99.799176)",p65,ERCOT,ERCOT,ERCOT_S,WSC,TX,texas,USA,southern-plains,TX_S_ERCOT,8234,69,700012,8234,345138,0.0,New 345/138 kV 2W Transformer,2.0,0.0,0.12,0,2000,2000,Y,2TF,,,,,,,8234
30008252,BRACKETT4A  -8252,29.32404,-100.393463,,138.0,0.002852423,PQ,8252_ERCOT,"POINT(29.32404,-100.393463)",p61,ERCOT,ERCOT,ERCOT_W,WSC,TX,texas,USA,southern-plains,TX_W_ERCOT,8252,63,700011,8252,345138,0.0,New 345/138 kV 2W Transformer,1.0,0.0,0.12,0,2000,2000,Y,2TF,,,,,,,8252
30008252,BRACKETT4A  -8252,29.32404,-100.393463,,138.0,0.002852423,PQ,8252_ERCOT,"POINT(29.32404,-100.393463)",p61,ERCOT,ERCOT,ERCOT_W,WSC,TX,texas,USA,southern-plains,TX_W_ERCOT,8252,64,700011,8252,345138,0.0,New 345/138 kV 2W Transformer,2.0,0.0,0.12,0,2000,2000,Y,2TF,,,,,,,8252
30008255,HAMILTON4A  -8255,29.374558,-100.849613,,138.0,0.011633363,PQ,8255_ERCOT,"POINT(29.374558,-100.849613)",p61,ERCOT,ERCOT,ERCOT_W,WSC,TX,texas,USA,southern-plains,TX_W_ERCOT,8255,43,700008,8255,345138,0.0,New 345/138 kV 2W Transformer,1.0,0.0,0.12,0,2000,2000,Y,2TF,,,,,,,8255
30008255,HAMILTON4A  -8255,29.374558,-100.849613,,138.0,0.011633363,PQ,8255_ERCOT,"POINT(29.374558,-100.849613)",p61,ERCOT,ERCOT,ERCOT_W,WSC,TX,texas,USA,southern-plains,TX_W_ERCOT,8255,44,700008,8255,345138,0.0,New 345/138 kV 2W Transformer,2.0,0.0,0.12,0,2000,2000,Y,2TF,,,,,,,8255
30044230,FLEWLN__138A-44230,29.695458,-95.821063,,138.0,0.011729504,PQ,44230_ERCOT,"POINT(29.695458,-95.821063)",p67,ERCOT,ERCOT,ERCOT_H,WSC,TX,texas,USA,southern-plains,TX_H_ERCOT,4230,168,700025,44230,345138,0.0,New 345/138 kV 2W Transformer,1.0,0.0,0.12,0,2000,2000,Y,2TF,,,,,,,4230
30044230,FLEWLN__138A-44230,29.695458,-95.821063,,138.0,0.011729504,PQ,44230_ERCOT,"POINT(29.695458,-95.821063)",p67,ERCOT,ERCOT,ERCOT_H,WSC,TX,texas,USA,southern-plains,TX_H_ERCOT,4230,169,700025,44230,345138,0.0,New 345/138 kV 2W Transformer,2.0,0.0,0.12,0,2000,2000,Y,2TF,,,,,,,4230
30044262,FRANZ66_8015-44262,29.749907,-95.358421,,138.0,0.32001125,PQ,44262_ERCOT,"POINT(29.749907,-95.358421)",p67,ERCOT,ERCOT,ERCOT_H,WSC,TX,texas,USA,southern-plains,TX_H_ERCOT,4262,152,700022,44262,345138,0.0,New 345/138 kV 2W Transformer,1.0,0.0,0.12,0,2000,2000,Y,2TF,,,,,,,4262
30044262,FRANZ66_8015-44262,29.749907,-95.358421,,138.0,0.32001125,PQ,44262_ERCOT,"POINT(29.749907,-95.358421)",p67,ERCOT,ERCOT,ERCOT_H,WSC,TX,texas,USA,southern-plains,TX_H_ERCOT,4262,153,700022,44262,345138,0.0,New 345/138 kV 2W Transformer,2.0,0.0,0.12,0,2000,2000,Y,2TF,,,,,,,4262
30044362,INTERM268030-44362,29.60671,-95.447059,,138.0,0.000863209,PQ,44362_ERCOT,"POINT(29.60671,-95.447059)",p67,ERCOT,ERCOT,ERCOT_H,WSC,TX,texas,USA,southern-plains,TX_H_ERCOT,4362,160,700024,44362,345138,0.0,New 345/138 kV 2W Transformer,1.0,0.0,0.12,0,2000,2000,Y,2TF,,,,,,,4362
30044362,INTERM268030-44362,29.60671,-95.447059,,138.0,0.000863209,PQ,44362_ERCOT,"POINT(29.60671,-95.447059)",p67,ERCOT,ERCOT,ERCOT_H,WSC,TX,texas,USA,southern-plains,TX_H_ERCOT,4362,161,700024,44362,345138,0.0,New 345/138 kV 2W Transformer,2.0,0.0,0.12,0,2000,2000,Y,2TF,,,,,,,4362
30046220,PETERS__138B-46220,29.848385,-96.20161,,138.0,0.0,PQ,46220_ERCOT,"POINT(29.848385,-96.20161)",p64,ERCOT,ERCOT,ERCOT_S,WSC,TX,texas,USA,southern-plains,TX_S_ERCOT,6220,141,700021,46220,345138,0.0,New 345/138 kV 2W Transformer,1.0,0.0,0.12,0,2000,2000,Y,2TF,,,,,,,6220
30046220,PETERS__138B-46220,29.848385,-96.20161,,138.0,0.0,PQ,46220_ERCOT,"POINT(29.848385,-96.20161)",p64,ERCOT,ERCOT,ERCOT_S,WSC,TX,texas,USA,southern-plains,TX_S_ERCOT,6220,142,700021,46220,345138,0.0,New 345/138 kV 2W Transformer,2.0,0.0,0.12,0,2000,2000,Y,2TF,,,,,,,6220
30046220,PETERS__138B-46220,29.848385,-96.20161,,138.0,0.0,PQ,46220_ERCOT,"POINT(29.848385,-96.20161)",p64,ERCOT,ERCOT,ERCOT_S,WSC,TX,texas,USA,southern-plains,TX_S_ERCOT,6220,173,700026,46220,345138,0.0,New 345/138 kV 2W Transformer,1.0,0.0,0.12,0,2000,2000,Y,2TF,,,,,,,6220
30046220,PETERS__138B-46220,29.848385,-96.20161,,138.0,0.0,PQ,46220_ERCOT,"POINT(29.848385,-96.20161)",p64,ERCOT,ERCOT,ERCOT_S,WSC,TX,texas,USA,southern-plains,TX_S_ERCOT,6220,174,700026,46220,345138,0.0,New 345/138 kV 2W Transformer,2.0,0.0,0.12,0,2000,2000,Y,2TF,,,,,,,6220
30076579,L_FORTLA8_1Y-76579,30.66409,-101.779863,,138.0,0.0,PQ,76579_ERCOT,"POINT(30.66409,-101.779863)",p61,ERCOT,ERCOT,ERCOT_W,WSC,TX,texas,USA,southern-plains,TX_W_ERCOT,6579,26,700005,76579,345138,0.0,New 345/138 kV 2W Transformer,1.0,0.0,0.12,0,2000,2000,Y,2TF,,,,,,,6579
30076579,L_FORTLA8_1Y-76579,30.66409,-101.779863,,138.0,0.0,PQ,76579_ERCOT,"POINT(30.66409,-101.779863)",p61,ERCOT,ERCOT,ERCOT_W,WSC,TX,texas,USA,southern-plains,TX_W_ERCOT,6579,27,700005,76579,345138,0.0,New 345/138 kV 2W Transformer,2.0,0.0,0.12,0,2000,2000,Y,2TF,,,,,,,6579
