node_id,node_name,latitude,longitude,reeds_ba,voltage,load_participation_factor,bus_type,area,geometry,ReEDS_Region_UPDATE,nercr,transreg,subFERC,cendiv,st,interconnect,country,usda,aggreg,last_digits_node_id,id,FromBus,ToBus,Vn [kV],Length[km],Remarks,CKT,R [pu],X [pu],B [pu],Rate1[MVA],Rate2[MVA],Add [Y/N],Type,GeomCode,Conductor,Area,ReEDS_Region,Longitude,Latitude,last_digits_ToBus
20160308,VAIL_160308,32.069688,-110.81314,,345.0,0.0,PQ,16_WECC,"POINT(32.069688,-110.81314)",p30,WECC_SRSG,WestConnect,WestConnect_South,MTN,AZ,western,USA,mountain,AZ,60308,173,700038,160308,500345,0.0,New 500/230 kV 2W Transformer,1.0,0.0,0.12,0,2000.0,2000.0,Y,2TF,,,,,,,60308
20160308,VAIL_160308,32.069688,-110.81314,,345.0,0.0,PQ,16_WECC,"POINT(32.069688,-110.81314)",p30,WECC_SRSG,WestConnect,WestConnect_South,MTN,AZ,western,USA,mountain,AZ,60308,174,700038,160308,500345,0.0,New 500/230 kV 2W Transformer,2.0,0.0,0.12,0,2000.0,2000.0,Y,2TF,,,,,,,60308
20010403,CABEZON_10403,35.74458,-107.13344,,345.0,0.0,PQ,10_WECC,"POINT(35.74458,-107.13344)",p31,WECC_SRSG,WestConnect,WestConnect_South,MTN,NM,western,USA,mountain,NM_WestConnect,10403,150,700032,10403,500345,0.0,New 500/230 kV 2W Transformer,1.0,0.0,0.12,0,2000.0,2000.0,Y,2TF,,,,,,,10403
20010403,CABEZON_10403,35.74458,-107.13344,,345.0,0.0,PQ,10_WECC,"POINT(35.74458,-107.13344)",p31,WECC_SRSG,WestConnect,WestConnect_South,MTN,NM,western,USA,mountain,NM_WestConnect,10403,151,700032,10403,500345,0.0,New 500/230 kV 2W Transformer,2.0,0.0,0.12,0,2000.0,2000.0,Y,2TF,,,,,,,10403
20064069,MACHACEK_64069,39.544293,-115.971359,,230.0,0.0,PQ,64_WECC,"POINT(39.544293,-115.971359)",p12,WECC_NWPP,NorthernGrid,NorthernGrid_South,MTN,NV,western,USA,mountain,NV,64069,47,700012,64069,500230,0.0,New 500/230 kV 2W Transformer,1.0,0.0,0.12,0,2000.0,2000.0,Y,2TF,,,,,,,64069
20064069,MACHACEK_64069,39.544293,-115.971359,,230.0,0.0,PQ,64_WECC,"POINT(39.544293,-115.971359)",p12,WECC_NWPP,NorthernGrid,NorthernGrid_South,MTN,NV,western,USA,mountain,NV,64069,48,700012,64069,500230,0.0,New 500/230 kV 2W Transformer,2.0,0.0,0.12,0,2000.0,2000.0,Y,2TF,,,,,,,64069
20189016,INNOVATION_189016,36.582484,-115.947162,,230.0,0.0,PQ,18_WECC,"POINT(36.582484,-115.947162)",p12,WECC_NWPP,NorthernGrid,NorthernGrid_South,MTN,NV,western,USA,mountain,NV,89016,38,700009,189016,500230,0.0,New 500/230 kV 2W Transformer,1.0,0.0,0.12,0,2000.0,2000.0,Y,2TF,,,,,,,89016
20189016,INNOVATION_189016,36.582484,-115.947162,,230.0,0.0,PQ,18_WECC,"POINT(36.582484,-115.947162)",p12,WECC_NWPP,NorthernGrid,NorthernGrid_South,MTN,NV,western,USA,mountain,NV,89016,39,700009,189016,500230,0.0,New 500/230 kV 2W Transformer,2.0,0.0,0.12,0,2000.0,2000.0,Y,2TF,,,,,,,89016
20024019,CAMINO_24019,34.845281,-114.967467,,230.0,0.0,PQ,24_WECC,"POINT(34.845281,-114.967467)",p10,WECC_CA,CAISO,CAISO_S,PA,CA,western,USA,pacific,CA_S_CAISO,24019,192,700042,24019,500230,0.0,New 500/230 kV 2W Transformer,1.0,0.0,0.12,0,2000.0,2000.0,Y,2TF,,,,,,,24019
20024019,CAMINO_24019,34.845281,-114.967467,,230.0,0.0,PQ,24_WECC,"POINT(34.845281,-114.967467)",p10,WECC_CA,CAISO,CAISO_S,PA,CA,western,USA,pacific,CA_S_CAISO,24019,193,700042,24019,500230,0.0,New 500/230 kV 2W Transformer,2.0,0.0,0.12,0,2000.0,2000.0,Y,2TF,,,,,,,24019
20065193,BONANZA_65193,40.087232,-109.291713,,345.0,0.0,PQ,65_WECC,"POINT(40.087232,-109.291713)",p26,WECC_NWPP,NorthernGrid,NorthernGrid_South,MTN,UT,western,USA,mountain,UT,65193,65,700016,65193,500345,0.0,New 500/230 kV 2W Transformer,1.0,0.0,0.12,0,2000.0,2000.0,Y,2TF,,,,,,,65193
20065193,BONANZA_65193,40.087232,-109.291713,,345.0,0.0,PQ,65_WECC,"POINT(40.087232,-109.291713)",p26,WECC_NWPP,NorthernGrid,NorthernGrid_South,MTN,UT,western,USA,mountain,UT,65193,66,700016,65193,500345,0.0,New 500/230 kV 2W Transformer,2.0,0.0,0.12,0,2000.0,2000.0,Y,2TF,,,,,,,65193
20064308,ALPINE_64308,39.47084,-117.822861,,230.0,0.0,PQ,64_WECC,"POINT(39.47084,-117.822861)",p12,WECC_NWPP,NorthernGrid,NorthernGrid_South,MTN,NV,western,USA,mountain,NV,64308,50,700013,64308,500230,0.0,New 500/230 kV 2W Transformer,1.0,0.0,0.12,0,2000.0,2000.0,Y,2TF,,,,,,,64308
20064308,ALPINE_64308,39.47084,-117.822861,,230.0,0.0,PQ,64_WECC,"POINT(39.47084,-117.822861)",p12,WECC_NWPP,NorthernGrid,NorthernGrid_South,MTN,NV,western,USA,mountain,NV,64308,51,700013,64308,500230,0.0,New 500/230 kV 2W Transformer,2.0,0.0,0.12,0,2000.0,2000.0,Y,2TF,,,,,,,64308
20060190,KINPORT_60190,42.893347,-112.561003,,345.0,0.0,PQ,60_WECC,"POINT(42.893347,-112.561003)",p16,WECC_NWPP,NorthernGrid,NorthernGrid_East,MTN,ID,western,USA,mountain,ID,60190,118,700024,60190,500345,0.0,New 500/345 kV 2W Transformer,1.0,0.0,0.12,0,2000.0,2000.0,Y,2TF,,,,,,,60190
20060190,KINPORT_60190,42.893347,-112.561003,,345.0,0.0,PQ,60_WECC,"POINT(42.893347,-112.561003)",p16,WECC_NWPP,NorthernGrid,NorthernGrid_East,MTN,ID,western,USA,mountain,ID,60190,119,700024,60190,500345,0.0,New 500/345 kV 2W Transformer,2.0,0.0,0.12,0,2000.0,2000.0,Y,2TF,,,,,,,60190
20073571,SNOWYRNG_73571,41.334858,-105.560925,,230.0,0.0,PQ,73_WECC,"POINT(41.334858,-105.560925)",p24,WECC_NWPP,WestConnect,WestConnect_North,MTN,WY,western,USA,mountain,WY_WestConnect,73571,70,700017,73571,500345,0.0,New 500/230 kV 2W Transformer,1.0,0.0,0.12,0,2000.0,2000.0,Y,2TF,,,,,,,73571
20073571,SNOWYRNG_73571,41.334858,-105.560925,,230.0,0.0,PQ,73_WECC,"POINT(41.334858,-105.560925)",p24,WECC_NWPP,WestConnect,WestConnect_North,MTN,WY,western,USA,mountain,WY_WestConnect,73571,71,700017,73571,500345,0.0,New 500/230 kV 2W Transformer,2.0,0.0,0.12,0,2000.0,2000.0,Y,2TF,,,,,,,73571
20629001,OVANDO_629001,46.9319,-113.099,,230.0,0.0,PQ,62_WECC,"POINT(46.9319,-113.099)",p17,WECC_NWPP,NorthernGrid,NorthernGrid_East,MTN,MT,western,USA,mountain,MT_NorthernGrid,29001,10,700003,629001,500230,0.0,New 500/230 kV 2W Transformer,1.0,0.0,0.12,0,2000.0,2000.0,Y,2TF,,,,,,,29001
20629001,OVANDO_629001,46.9319,-113.099,,230.0,0.0,PQ,62_WECC,"POINT(46.9319,-113.099)",p17,WECC_NWPP,NorthernGrid,NorthernGrid_East,MTN,MT,western,USA,mountain,MT_NorthernGrid,29001,11,700003,629001,500230,0.0,New 500/230 kV 2W Transformer,2.0,0.0,0.12,0,2000.0,2000.0,Y,2TF,,,,,,,29001
20065420,DAVEJOHN_65420,42.838414,-105.778387,,230.0,0.0,PQ,65_WECC,"POINT(42.838414,-105.778387)",p24,WECC_NWPP,WestConnect,WestConnect_North,MTN,WY,western,USA,mountain,WY_WestConnect,65420,89,700020,65420,500230,0.0,New 500/230 kV 2W Transformer,1.0,0.0,0.12,0,2000.0,2000.0,Y,2TF,,,,,,,65420
20019042,PARKER_19042,34.294916,-114.142478,,230.0,0.0,PQ,19_WECC,"POINT(34.294916,-114.142478)",p10,WECC_CA,CAISO,CAISO_S,PA,CA,western,USA,pacific,CA_S_CAISO,19042,184,700040,19042,500230,0.0,New 500/230 kV 2W Transformer,1.0,0.0,0.12,0,2000.0,2000.0,Y,2TF,,,,,,,19042
20019042,PARKER_19042,34.294916,-114.142478,,230.0,0.0,PQ,19_WECC,"POINT(34.294916,-114.142478)",p10,WECC_CA,CAISO,CAISO_S,PA,CA,western,USA,pacific,CA_S_CAISO,19042,185,700040,19042,500230,0.0,New 500/230 kV 2W Transformer,2.0,0.0,0.12,0,2000.0,2000.0,Y,2TF,,,,,,,19042
20030020,OLINDA_30020,40.384346,-122.383961,,500.0,0.0,PQ,30_WECC,"POINT(40.384346,-122.383961)",p9,WECC_CA,CAISO,CAISO_N,PA,CA,western,USA,pacific,CA_N_CAISO,30020,19,700005,630020,500230,0.0,New 500/230 kV 2W Transformer,1.0,0.0,0.12,0,2000.0,2000.0,Y,2TF,,,,,,,30020
20030020,OLINDA_30020,40.384346,-122.383961,,500.0,0.0,PQ,30_WECC,"POINT(40.384346,-122.383961)",p9,WECC_CA,CAISO,CAISO_N,PA,CA,western,USA,pacific,CA_N_CAISO,30020,20,700005,630020,500230,0.0,New 500/230 kV 2W Transformer,2.0,0.0,0.12,0,2000.0,2000.0,Y,2TF,,,,,,,30020
20630020,ROSEBUD MDU_630020,46.2604,-106.47319,,230.0,0.0,PQ,63_WECC,"POINT(46.2604,-106.47319)",p20,WECC_NWPP,NorthernGrid,NorthernGrid_East,MTN,MT,western,USA,mountain,MT_NorthernGrid,30020,19,700005,630020,500230,0.0,New 500/230 kV 2W Transformer,1.0,0.0,0.12,0,2000.0,2000.0,Y,2TF,,,,,,,30020
20630020,ROSEBUD MDU_630020,46.2604,-106.47319,,230.0,0.0,PQ,63_WECC,"POINT(46.2604,-106.47319)",p20,WECC_NWPP,NorthernGrid,NorthernGrid_East,MTN,MT,western,USA,mountain,MT_NorthernGrid,30020,20,700005,630020,500230,0.0,New 500/230 kV 2W Transformer,2.0,0.0,0.12,0,2000.0,2000.0,Y,2TF,,,,,,,30020
20010390,RIOPUERC_10390,35.3279,-106.856477,,345.0,0.0,PQ,10_WECC,"POINT(35.3279,-106.856477)",p31,WECC_SRSG,WestConnect,WestConnect_South,MTN,NM,western,USA,mountain,NM_WestConnect,10390,141,700029,10390,500345,0.0,New 500/230 kV 2W Transformer,1.0,0.0,0.12,0,2000.0,2000.0,Y,2TF,,,,,,,10390
20010390,RIOPUERC_10390,35.3279,-106.856477,,345.0,0.0,PQ,10_WECC,"POINT(35.3279,-106.856477)",p31,WECC_SRSG,WestConnect,WestConnect_South,MTN,NM,western,USA,mountain,NM_WestConnect,10390,142,700029,10390,500345,0.0,New 500/230 kV 2W Transformer,2.0,0.0,0.12,0,2000.0,2000.0,Y,2TF,,,,,,,10390
20070061,BOONE_70061,38.256501,-104.22482,,230.0,0.0,PQ,70_WECC,"POINT(38.256501,-104.22482)",p34,WECC_NWPP,WestConnect,WestConnect_North,MTN,CO,western,USA,mountain,CO,70061,26,700006,70061,345230,0.0,New 345/230 kV 2W Transformer,1.0,0.0,0.12,0,2000.0,2400.0,Y,2TF,,,,,,,70061
20070061,BOONE_70061,38.256501,-104.22482,,230.0,0.0,PQ,70_WECC,"POINT(38.256501,-104.22482)",p34,WECC_NWPP,WestConnect,WestConnect_North,MTN,CO,western,USA,mountain,CO,70061,27,700006,70061,345230,0.0,New 345/230 kV 2W Transformer,2.0,0.0,0.12,0,2000.0,2400.0,Y,2TF,,,,,,,70061
20014101,FOURCORN_14101,36.688118,-108.485426,,345.0,0.0,PQ,14_WECC,"POINT(36.688118,-108.485426)",p31,WECC_SRSG,WestConnect,WestConnect_South,MTN,NM,western,USA,mountain,NM_WestConnect,14101,146,700031,14101,500345,0.0,New 500/230 kV 2W Transformer,1.0,0.0,0.12,0,2000.0,2000.0,Y,2TF,,,,,,,14101
20014101,FOURCORN_14101,36.688118,-108.485426,,345.0,0.0,PQ,14_WECC,"POINT(36.688118,-108.485426)",p31,WECC_SRSG,WestConnect,WestConnect_South,MTN,NM,western,USA,mountain,NM_WestConnect,14101,147,700031,14101,500345,0.0,New 500/230 kV 2W Transformer,2.0,0.0,0.12,0,2000.0,2000.0,Y,2TF,,,,,,,14101
20065300,CASPERPP_65300,42.871684,-106.35995,,230.0,0.0,PQ,65_WECC,"POINT(42.871684,-106.35995)",p24,WECC_NWPP,WestConnect,WestConnect_North,MTN,WY,western,USA,mountain,WY_WestConnect,65300,85,700022,65300,500230,0.0,New 500/230 kV 2W Transformer,1.0,0.0,0.12,0,2000.0,2000.0,Y,2TF,,,,,,,65300
20065300,CASPERPP_65300,42.871684,-106.35995,,230.0,0.0,PQ,65_WECC,"POINT(42.871684,-106.35995)",p24,WECC_NWPP,WestConnect,WestConnect_North,MTN,WY,western,USA,mountain,WY_WestConnect,65300,86,700022,65300,500230,0.0,New 500/230 kV 2W Transformer,2.0,0.0,0.12,0,2000.0,2000.0,Y,2TF,,,,,,,65300
20065300,CASPERPP_65300,42.871684,-106.35995,,230.0,0.0,PQ,65_WECC,"POINT(42.871684,-106.35995)",p24,WECC_NWPP,WestConnect,WestConnect_North,MTN,WY,western,USA,mountain,WY_WestConnect,65300,90,700020,65300,500230,0.0,New 500/230 kV 2W Transformer,2.0,0.0,0.12,0,2000.0,2000.0,Y,2TF,,,,,,,65300
20030435,LAKEVILE_30435,38.247643,-122.583056,,230.0,0.0,PQ,30_WECC,"POINT(38.247643,-122.583056)",p9,WECC_CA,CAISO,CAISO_N,PA,CA,western,USA,pacific,CA_N_CAISO,30435,261,700052,30435,500230,0.0,New 500/230 kV 2W Transformer,1.0,0.0,0.12,0,2000.0,2000.0,Y,2TF,,,,,,,30435
20030435,LAKEVILE_30435,38.247643,-122.583056,,230.0,0.0,PQ,30_WECC,"POINT(38.247643,-122.583056)",p9,WECC_CA,CAISO,CAISO_N,PA,CA,western,USA,pacific,CA_N_CAISO,30435,262,700052,30435,500230,0.0,New 500/230 kV 2W Transformer,2.0,0.0,0.12,0,2000.0,2000.0,Y,2TF,,,,,,,30435
20622001,GTF 230SWYD_622001,47.543408,-111.223029,,230.0,0.0,PQ,62_WECC,"POINT(47.543408,-111.223029)",p18,WECC_NWPP,NorthernGrid,NorthernGrid_East,MTN,MT,western,USA,mountain,MT_NorthernGrid,22001,14,700004,622001,500230,0.0,New 500/230 kV 2W Transformer,1.0,0.0,0.12,0,2000.0,2000.0,Y,2TF,,,,,,,22001
20622001,GTF 230SWYD_622001,47.543408,-111.223029,,230.0,0.0,PQ,62_WECC,"POINT(47.543408,-111.223029)",p18,WECC_NWPP,NorthernGrid,NorthernGrid_East,MTN,MT,western,USA,mountain,MT_NorthernGrid,22001,15,700004,622001,500230,0.0,New 500/230 kV 2W Transformer,2.0,0.0,0.12,0,2000.0,2000.0,Y,2TF,,,,,,,22001
20010110,DIAMOND_TAIL_10110,35.361424,-106.339136,,345.0,0.0,PQ,10_WECC,"POINT(35.361424,-106.339136)",p31,WECC_SRSG,WestConnect,WestConnect_South,MTN,NM,western,USA,mountain,NM_WestConnect,10110,127,700025,10110,500345,0.0,New 500/230 kV 2W Transformer,1.0,0.0,0.12,0,2000.0,2000.0,Y,2TF,,,,,,,10110
20010110,DIAMOND_TAIL_10110,35.361424,-106.339136,,345.0,0.0,PQ,10_WECC,"POINT(35.361424,-106.339136)",p31,WECC_SRSG,WestConnect,WestConnect_South,MTN,NM,western,USA,mountain,NM_WestConnect,10110,128,700025,10110,500345,0.0,New 500/230 kV 2W Transformer,2.0,0.0,0.12,0,2000.0,2000.0,Y,2TF,,,,,,,10110
20010959,WSPIRIT_10959,34.6327,-105.665,,345.0,0.0,PQ,10_WECC,"POINT(34.6327,-105.665)",p31,WECC_SRSG,WestConnect,WestConnect_South,MTN,NM,western,USA,mountain,NM_WestConnect,10959,133,700027,10959,500345,0.0,New 500/230 kV 2W Transformer,1.0,0.0,0.12,0,2000.0,2000.0,Y,2TF,,,,,,,10959
20010959,WSPIRIT_10959,34.6327,-105.665,,345.0,0.0,PQ,10_WECC,"POINT(34.6327,-105.665)",p31,WECC_SRSG,WestConnect,WestConnect_South,MTN,NM,western,USA,mountain,NM_WestConnect,10959,134,700027,10959,500345,0.0,New 500/230 kV 2W Transformer,2.0,0.0,0.12,0,2000.0,2000.0,Y,2TF,,,,,,,10959
20040895,ROGUE_40895,42.482952,-124.402105,,230.0,0.0,PQ,40_WECC,"POINT(42.482952,-124.402105)",p6,WECC_NWPP,NorthernGrid,NorthernGrid_West,PA,OR,western,USA,pacific,OR,40895,100,700023,40895,500230,0.0,New 500/230 kV 2W Transformer,1.0,0.0,0.12,0,2000.0,2000.0,Y,2TF,,,,,,,40895
20040895,ROGUE_40895,42.482952,-124.402105,,230.0,0.0,PQ,40_WECC,"POINT(42.482952,-124.402105)",p6,WECC_NWPP,NorthernGrid,NorthernGrid_West,PA,OR,western,USA,pacific,OR,40895,101,700023,40895,500230,0.0,New 500/230 kV 2W Transformer,2.0,0.0,0.12,0,2000.0,2000.0,Y,2TF,,,,,,,40895
20037640,TRINITY_37640,40.797327,-122.76274,,230.0,0.0,PQ,30_WECC,"POINT(40.797327,-122.76274)",p9,WECC_CA,CAISO,CAISO_N,PA,CA,western,USA,pacific,CA_N_CAISO,37640,249,700049,37640,500230,0.0,New 500/230 kV 2W Transformer,1.0,0.0,0.12,0,2000.0,2000.0,Y,2TF,,,,,,,37640
20037640,TRINITY_37640,40.797327,-122.76274,,230.0,0.0,PQ,30_WECC,"POINT(40.797327,-122.76274)",p9,WECC_CA,CAISO,CAISO_N,PA,CA,western,USA,pacific,CA_N_CAISO,37640,250,700049,37640,500230,0.0,New 500/230 kV 2W Transformer,2.0,0.0,0.12,0,2000.0,2000.0,Y,2TF,,,,,,,37640
20065235,BUFFALO_65235,44.35,-106.65,,230.0,0.0,PQ,65_WECC,"POINT(44.35,-106.65)",p22,WECC_NWPP,NorthernGrid,NorthernGrid_East,MTN,WY,western,USA,mountain,WY_NorthernGrid,65235,81,700019,65235,500230,0.0,New 500/230 kV 2W Transformer,1.0,0.0,0.12,0,2000.0,2000.0,Y,2TF,,,,,,,65235
20065235,BUFFALO_65235,44.35,-106.65,,230.0,0.0,PQ,65_WECC,"POINT(44.35,-106.65)",p22,WECC_NWPP,NorthernGrid,NorthernGrid_East,MTN,WY,western,USA,mountain,WY_NorthernGrid,65235,82,700019,65235,500230,0.0,New 500/230 kV 2W Transformer,2.0,0.0,0.12,0,2000.0,2000.0,Y,2TF,,,,,,,65235
20010369,WESTMESA_10369,35.11533,-106.725791,,345.0,0.0,PQ,10_WECC,"POINT(35.11533,-106.725791)",p31,WECC_SRSG,WestConnect,WestConnect_South,MTN,NM,western,USA,mountain,NM_WestConnect,10369,161,700035,10369,500345,0.0,New 500/230 kV 2W Transformer,1.0,0.0,0.12,0,2000.0,2000.0,Y,2TF,,,,,,,10369
20010369,WESTMESA_10369,35.11533,-106.725791,,345.0,0.0,PQ,10_WECC,"POINT(35.11533,-106.725791)",p31,WECC_SRSG,WestConnect,WestConnect_South,MTN,NM,western,USA,mountain,NM_WestConnect,10369,162,700035,10369,500345,0.0,New 500/230 kV 2W Transformer,2.0,0.0,0.12,0,2000.0,2000.0,Y,2TF,,,,,,,10369
20160301,GREENLEE_160301,32.966932,-109.172371,,345.0,0.0,PQ,16_WECC,"POINT(32.966932,-109.172371)",p28,WECC_SRSG,WestConnect,WestConnect_South,MTN,AZ,western,USA,mountain,AZ,60301,169,700037,160301,500345,0.0,New 500/230 kV 2W Transformer,1.0,0.0,0.12,0,2000.0,2000.0,Y,2TF,,,,,,,60301
20160301,GREENLEE_160301,32.966932,-109.172371,,345.0,0.0,PQ,16_WECC,"POINT(32.966932,-109.172371)",p28,WECC_SRSG,WestConnect,WestConnect_South,MTN,AZ,western,USA,mountain,AZ,60301,170,700037,160301,500345,0.0,New 500/230 kV 2W Transformer,2.0,0.0,0.12,0,2000.0,2000.0,Y,2TF,,,,,,,60301
20070254,LAMAR_CO_70254,38.207274,-102.530354,,230.0,0.0,PQ,70_WECC,"POINT(38.207274,-102.530354)",p34,WECC_NWPP,WestConnect,WestConnect_North,MTN,CO,western,USA,mountain,CO,70254,28,700007,70254,345230,0.0,New 345/230 kV 2W Transformer,1.0,0.0,0.12,0,2000.0,2400.0,Y,2TF,,,,,,,70254
20070254,LAMAR_CO_70254,38.207274,-102.530354,,230.0,0.0,PQ,70_WECC,"POINT(38.207274,-102.530354)",p34,WECC_NWPP,WestConnect,WestConnect_North,MTN,CO,western,USA,mountain,CO,70254,29,700007,70254,345230,0.0,New 345/230 kV 2W Transformer,2.0,0.0,0.12,0,2000.0,2400.0,Y,2TF,,,,,,,70254
20019022,DAVIS_19022,35.194873,-114.567615,,230.0,0.0,PQ,19_WECC,"POINT(35.194873,-114.567615)",p27,WECC_SRSG,WestConnect,WestConnect_South,MTN,AZ,western,USA,mountain,AZ,19022,188,700041,19022,500230,0.0,New 500/230 kV 2W Transformer,1.0,0.0,0.12,0,2000.0,2000.0,Y,2TF,,,,,,,19022
20019022,DAVIS_19022,35.194873,-114.567615,,230.0,0.0,PQ,19_WECC,"POINT(35.194873,-114.567615)",p27,WECC_SRSG,WestConnect,WestConnect_South,MTN,AZ,western,USA,mountain,AZ,19022,189,700041,19022,500230,0.0,New 500/230 kV 2W Transformer,2.0,0.0,0.12,0,2000.0,2000.0,Y,2TF,,,,,,,19022
20060095,BROWNLEE_60095,44.840217,-116.896467,,230.0,0.0,PQ,60_WECC,"POINT(44.840217,-116.896467)",p15,WECC_NWPP,NorthernGrid,NorthernGrid_East,MTN,ID,western,USA,mountain,ID,60095,5,700002,60095,500230,0.0,New 500/230 kV 2W Transformer,1.0,0.0,0.12,0,2000.0,2000.0,Y,2TF,,,,,,,60095
20060095,BROWNLEE_60095,44.840217,-116.896467,,230.0,0.0,PQ,60_WECC,"POINT(44.840217,-116.896467)",p15,WECC_NWPP,NorthernGrid,NorthernGrid_East,MTN,ID,western,USA,mountain,ID,60095,6,700002,60095,500230,0.0,New 500/230 kV 2W Transformer,2.0,0.0,0.12,0,2000.0,2000.0,Y,2TF,,,,,,,60095
20073036,BURLNGTN_73036,39.359012,-102.242914,,230.0,0.0,PQ,73_WECC,"POINT(39.359012,-102.242914)",p34,WECC_NWPP,WestConnect,WestConnect_North,MTN,CO,western,USA,mountain,CO,73036,30,700008,73036,345230,0.0,New 345/230 kV 2W Transformer,1.0,0.0,0.12,0,2000.0,2400.0,Y,2TF,,,,,,,73036
20073036,BURLNGTN_73036,39.359012,-102.242914,,230.0,0.0,PQ,73_WECC,"POINT(39.359012,-102.242914)",p34,WECC_NWPP,WestConnect,WestConnect_North,MTN,CO,western,USA,mountain,CO,73036,31,700008,73036,345230,0.0,New 345/230 kV 2W Transformer,2.0,0.0,0.12,0,2000.0,2400.0,Y,2TF,,,,,,,73036
20010968,CLINECORNER_10968,35.092809,-105.716554,,345.0,0.0,PQ,10_WECC,"POINT(35.092809,-105.716554)",p31,WECC_SRSG,WestConnect,WestConnect_South,MTN,NM,western,USA,mountain,NM_WestConnect,10968,130,700026,10968,500345,0.0,New 500/230 kV 2W Transformer,1.0,0.0,0.12,0,2000.0,2000.0,Y,2TF,,,,,,,10968
20010968,CLINECORNER_10968,35.092809,-105.716554,,345.0,0.0,PQ,10_WECC,"POINT(35.092809,-105.716554)",p31,WECC_SRSG,WestConnect,WestConnect_South,MTN,NM,western,USA,mountain,NM_WestConnect,10968,131,700026,10968,500345,0.0,New 500/230 kV 2W Transformer,2.0,0.0,0.12,0,2000.0,2000.0,Y,2TF,,,,,,,10968
20010025,B-A_10025,35.349687,-106.484473,,345.0,0.0,PQ,10_WECC,"POINT(35.349687,-106.484473)",p31,WECC_SRSG,WestConnect,WestConnect_South,MTN,NM,western,USA,mountain,NM_WestConnect,10025,137,700028,10025,500345,0.0,New 500/230 kV 2W Transformer,1.0,0.0,0.12,0,2000.0,2000.0,Y,2TF,,,,,,,10025
20010025,B-A_10025,35.349687,-106.484473,,345.0,0.0,PQ,10_WECC,"POINT(35.349687,-106.484473)",p31,WECC_SRSG,WestConnect,WestConnect_South,MTN,NM,western,USA,mountain,NM_WestConnect,10025,138,700028,10025,500345,0.0,New 500/230 kV 2W Transformer,2.0,0.0,0.12,0,2000.0,2000.0,Y,2TF,,,,,,,10025
20037591,KE_SOUTH_37591,40.60932,-122.444219,,230.0,0.0,PQ,30_WECC,"POINT(40.60932,-122.444219)",p9,WECC_CA,CAISO,CAISO_N,PA,CA,western,USA,pacific,CA_N_CAISO,37591,253,700050,37591,500230,0.0,New 500/230 kV 2W Transformer,1.0,0.0,0.12,0,2000.0,2000.0,Y,2TF,,,,,,,37591
20037591,KE_SOUTH_37591,40.60932,-122.444219,,230.0,0.0,PQ,30_WECC,"POINT(40.60932,-122.444219)",p9,WECC_CA,CAISO,CAISO_N,PA,CA,western,USA,pacific,CA_N_CAISO,37591,254,700050,37591,500230,0.0,New 500/230 kV 2W Transformer,2.0,0.0,0.12,0,2000.0,2000.0,Y,2TF,,,,,,,37591
20024087,MAGUNDEN_24087,35.361198,-118.922396,,230.0,0.0,PQ,24_WECC,"POINT(35.361198,-118.922396)",p10,WECC_CA,CAISO,CAISO_S,PA,CA,western,USA,pacific,CA_S_CAISO,24087,230,700044,24087,500230,0.0,New 500/230 kV 2W Transformer,1.0,0.0,0.12,0,2000.0,2000.0,Y,2TF,,,,,,,24087
20024087,MAGUNDEN_24087,35.361198,-118.922396,,230.0,0.0,PQ,24_WECC,"POINT(35.361198,-118.922396)",p10,WECC_CA,CAISO,CAISO_S,PA,CA,western,USA,pacific,CA_S_CAISO,24087,231,700044,24087,500230,0.0,New 500/230 kV 2W Transformer,2.0,0.0,0.12,0,2000.0,2000.0,Y,2TF,,,,,,,24087
20010870,CLNCRN_1_10870,34.71849,-105.34376,,345.0,0.0,PQ,10_WECC,"POINT(34.71849,-105.34376)",p31,WECC_SRSG,WestConnect,WestConnect_South,MTN,NM,western,USA,mountain,NM_WestConnect,10870,153,700033,10870,500345,0.0,New 500/230 kV 2W Transformer,1.0,0.0,0.12,0,2000.0,2000.0,Y,2TF,,,,,,,10870
20010870,CLNCRN_1_10870,34.71849,-105.34376,,345.0,0.0,PQ,10_WECC,"POINT(34.71849,-105.34376)",p31,WECC_SRSG,WestConnect,WestConnect_South,MTN,NM,western,USA,mountain,NM_WestConnect,10870,154,700033,10870,500345,0.0,New 500/230 kV 2W Transformer,2.0,0.0,0.12,0,2000.0,2000.0,Y,2TF,,,,,,,10870
20073551,W CANON_73551,38.505305,-105.320455,,230.0,0.0,PQ,73_WECC,"POINT(38.505305,-105.320455)",p34,WECC_NWPP,WestConnect,WestConnect_North,MTN,CO,western,USA,mountain,CO,73551,215,700043,73551,345230,0.0,New 345/230 kV 2W Transformer,1.0,0.0,0.12,0,2000.0,2000.0,Y,2TF,,,,,,,73551
20073551,W CANON_73551,38.505305,-105.320455,,230.0,0.0,PQ,73_WECC,"POINT(38.505305,-105.320455)",p34,WECC_NWPP,WestConnect,WestConnect_North,MTN,CO,western,USA,mountain,CO,73551,216,700043,73551,345230,0.0,New 345/230 kV 2W Transformer,2.0,0.0,0.12,0,2000.0,2000.0,Y,2TF,,,,,,,73551
20030430,FULTON_30430,38.5,-122.76,,230.0,0.0,PQ,30_WECC,"POINT(38.5,-122.76)",p9,WECC_CA,CAISO,CAISO_N,PA,CA,western,USA,pacific,CA_N_CAISO,30430,257,700051,30430,500230,0.0,New 500/230 kV 2W Transformer,1.0,0.0,0.12,0,2000.0,2000.0,Y,2TF,,,,,,,30430
20030430,FULTON_30430,38.5,-122.76,,230.0,0.0,PQ,30_WECC,"POINT(38.5,-122.76)",p9,WECC_CA,CAISO,CAISO_N,PA,CA,western,USA,pacific,CA_N_CAISO,30430,258,700051,30430,500230,0.0,New 500/230 kV 2W Transformer,2.0,0.0,0.12,0,2000.0,2000.0,Y,2TF,,,,,,,30430
20066750,YELOWTLP_66750,45.31,-107.95,,230.0,0.0,PQ,65_WECC,"POINT(45.31,-107.95)",p18,WECC_NWPP,NorthernGrid,NorthernGrid_East,MTN,MT,western,USA,mountain,MT_NorthernGrid,66750,77,700018,66750,500230,0.0,New 500/230 kV 2W Transformer,1.0,0.0,0.12,0,2000.0,2000.0,Y,2TF,,,,,,,66750
20066750,YELOWTLP_66750,45.31,-107.95,,230.0,0.0,PQ,65_WECC,"POINT(45.31,-107.95)",p18,WECC_NWPP,NorthernGrid,NorthernGrid_East,MTN,MT,western,USA,mountain,MT_NorthernGrid,66750,78,700018,66750,500230,0.0,New 500/230 kV 2W Transformer,2.0,0.0,0.12,0,2000.0,2000.0,Y,2TF,,,,,,,66750
20030515,WARNERVL_30515,37.741928,-120.80299,,230.0,0.0,PQ,30_WECC,"POINT(37.741928,-120.80299)",p9,WECC_CA,CAISO,CAISO_N,PA,CA,western,USA,pacific,CA_N_CAISO,30515,243,700047,30515,500230,0.0,New 500/230 kV 2W Transformer,1.0,0.0,0.12,0,2000.0,2000.0,Y,2TF,,,,,,,30515
20030515,WARNERVL_30515,37.741928,-120.80299,,230.0,0.0,PQ,30_WECC,"POINT(37.741928,-120.80299)",p9,WECC_CA,CAISO,CAISO_N,PA,CA,western,USA,pacific,CA_N_CAISO,30515,244,700047,30515,500230,0.0,New 500/230 kV 2W Transformer,2.0,0.0,0.12,0,2000.0,2000.0,Y,2TF,,,,,,,30515
20011047,MACHOSPG_11047,32.53844,-107.493524,,345.0,0.0,PQ,11_WECC,"POINT(32.53844,-107.493524)",p31,WECC_SRSG,WestConnect,WestConnect_South,MTN,NM,western,USA,mountain,NM_WestConnect,11047,158,700034,11047,500345,0.0,New 500/230 kV 2W Transformer,1.0,0.0,0.12,0,2000.0,2000.0,Y,2TF,,,,,,,11047
20011047,MACHOSPG_11047,32.53844,-107.493524,,345.0,0.0,PQ,11_WECC,"POINT(32.53844,-107.493524)",p31,WECC_SRSG,WestConnect,WestConnect_South,MTN,NM,western,USA,mountain,NM_WestConnect,11047,159,700034,11047,500345,0.0,New 500/230 kV 2W Transformer,2.0,0.0,0.12,0,2000.0,2000.0,Y,2TF,,,,,,,11047
20026043,INTERMT_26043,39.503186,-112.583491,,345.0,0.0,PQ,26_WECC,"POINT(39.503186,-112.583491)",p25,WECC_NWPP,NorthernGrid,NorthernGrid_South,MTN,UT,western,USA,mountain,UT,26043,61,700015,26043,500345,0.0,New 500/230 kV 2W Transformer,1.0,0.0,0.12,0,2000.0,2000.0,Y,2TF,,,,,,,26043
20026043,INTERMT_26043,39.503186,-112.583491,,345.0,0.0,PQ,26_WECC,"POINT(39.503186,-112.583491)",p25,WECC_NWPP,NorthernGrid,NorthernGrid_South,MTN,UT,western,USA,mountain,UT,26043,62,700015,26043,500345,0.0,New 500/230 kV 2W Transformer,2.0,0.0,0.12,0,2000.0,2000.0,Y,2TF,,,,,,,26043
20067790,POPULUS_67790,42.426197,-112.158942,,345.0,0.0,PQ,65_WECC,"POINT(42.426197,-112.158942)",p16,WECC_NWPP,NorthernGrid,NorthernGrid_East,MTN,ID,western,USA,mountain,ID,67790,95,700021,67790,500230,0.0,New 500/230 kV 2W Transformer,1.0,0.0,0.12,0,2000.0,2000.0,Y,2TF,,,,,,,67790
20067790,POPULUS_67790,42.426197,-112.158942,,345.0,0.0,PQ,65_WECC,"POINT(42.426197,-112.158942)",p16,WECC_NWPP,NorthernGrid,NorthernGrid_East,MTN,ID,western,USA,mountain,ID,67790,96,700021,67790,500230,0.0,New 500/230 kV 2W Transformer,2.0,0.0,0.12,0,2000.0,2000.0,Y,2TF,,,,,,,67790
20064054,FT CHUR_64054,39.131058,-119.131935,,230.0,0.0,PQ,64_WECC,"POINT(39.131058,-119.131935)",p12,WECC_NWPP,NorthernGrid,NorthernGrid_South,MTN,NV,western,USA,mountain,NV,64054,43,700010,64054,500230,0.0,New 500/230 kV 2W Transformer,1.0,0.0,0.12,0,2000.0,2000.0,Y,2TF,,,,,,,64054
20064054,FT CHUR_64054,39.131058,-119.131935,,230.0,0.0,PQ,64_WECC,"POINT(39.131058,-119.131935)",p12,WECC_NWPP,NorthernGrid,NorthernGrid_South,MTN,NV,western,USA,mountain,NV,64054,44,700010,64054,500230,0.0,New 500/230 kV 2W Transformer,2.0,0.0,0.12,0,2000.0,2000.0,Y,2TF,,,,,,,64054
20030810,GREGG_30810,36.853569,-119.918048,,230.0,0.0,PQ,30_WECC,"POINT(36.853569,-119.918048)",p9,WECC_CA,CAISO,CAISO_N,PA,CA,western,USA,pacific,CA_N_CAISO,30810,239,700046,30810,500230,0.0,New 500/230 kV 2W Transformer,1.0,0.0,0.12,0,2000.0,2000.0,Y,2TF,,,,,,,30810
20030810,GREGG_30810,36.853569,-119.918048,,230.0,0.0,PQ,30_WECC,"POINT(36.853569,-119.918048)",p9,WECC_CA,CAISO,CAISO_N,PA,CA,western,USA,pacific,CA_N_CAISO,30810,240,700046,30810,500230,0.0,New 500/230 kV 2W Transformer,2.0,0.0,0.12,0,2000.0,2000.0,Y,2TF,,,,,,,30810
20060045,BOISEBCH_60045,43.560415,-116.160712,,230.0,0.0,PQ,60_WECC,"POINT(43.560415,-116.160712)",p15,WECC_NWPP,NorthernGrid,NorthernGrid_East,MTN,ID,western,USA,mountain,ID,60045,283,700054,60045,500230,0.0,New 500/230 kV 2W Transformer,1.0,0.0,0.12,0,2000.0,2000.0,Y,2TF,,,,,,,60045
20060045,BOISEBCH_60045,43.560415,-116.160712,,230.0,0.0,PQ,60_WECC,"POINT(43.560415,-116.160712)",p15,WECC_NWPP,NorthernGrid,NorthernGrid_East,MTN,ID,western,USA,mountain,ID,60045,284,700054,60045,500230,0.0,New 500/230 kV 2W Transformer,2.0,0.0,0.12,0,2000.0,2000.0,Y,2TF,,,,,,,60045
20011093,LUNA_11093,32.303757,-107.779403,,345.0,0.0,PQ,11_WECC,"POINT(32.303757,-107.779403)",p31,WECC_SRSG,WestConnect,WestConnect_South,MTN,NM,western,USA,mountain,NM_WestConnect,11093,165,700036,11093,500345,0.0,New 500/230 kV 2W Transformer,1.0,0.0,0.12,0,2000.0,2000.0,Y,2TF,,,,,,,11093
20011093,LUNA_11093,32.303757,-107.779403,,345.0,0.0,PQ,11_WECC,"POINT(32.303757,-107.779403)",p31,WECC_SRSG,WestConnect,WestConnect_South,MTN,NM,western,USA,mountain,NM_WestConnect,11093,166,700036,11093,500345,0.0,New 500/230 kV 2W Transformer,2.0,0.0,0.12,0,2000.0,2000.0,Y,2TF,,,,,,,11093
20064500,SALTWELL T_64500,39.31104,-118.63042,,230.0,0.0,PQ,64_WECC,"POINT(39.31104,-118.63042)",p12,WECC_NWPP,NorthernGrid,NorthernGrid_South,MTN,NV,western,USA,mountain,NV,64500,54,700014,64500,500230,0.0,New 500/230 kV 2W Transformer,1.0,0.0,0.12,0,2000.0,2000.0,Y,2TF,,,,,,,64500
20064500,SALTWELL T_64500,39.31104,-118.63042,,230.0,0.0,PQ,64_WECC,"POINT(39.31104,-118.63042)",p12,WECC_NWPP,NorthernGrid,NorthernGrid_South,MTN,NV,western,USA,mountain,NV,64500,55,700014,64500,500230,0.0,New 500/230 kV 2W Transformer,2.0,0.0,0.12,0,2000.0,2000.0,Y,2TF,,,,,,,64500
20024235,RECTOR_24235,36.304614,-119.245369,,230.0,0.0,PQ,24_WECC,"POINT(36.304614,-119.245369)",p10,WECC_CA,CAISO,CAISO_S,PA,CA,western,USA,pacific,CA_S_CAISO,24235,234,700045,24235,500230,0.0,New 500/230 kV 2W Transformer,1.0,0.0,0.12,0,2000.0,2000.0,Y,2TF,,,,,,,24235
20024235,RECTOR_24235,36.304614,-119.245369,,230.0,0.0,PQ,24_WECC,"POINT(36.304614,-119.245369)",p10,WECC_CA,CAISO,CAISO_S,PA,CA,western,USA,pacific,CA_S_CAISO,24235,235,700045,24235,500230,0.0,New 500/230 kV 2W Transformer,2.0,0.0,0.12,0,2000.0,2000.0,Y,2TF,,,,,,,24235
20019500,HASSYTAP_19500,33.508289,-113.031936,,230.0,0.0,PQ,19_WECC,"POINT(33.508289,-113.031936)",p28,WECC_SRSG,WestConnect,WestConnect_South,MTN,AZ,western,USA,mountain,AZ,19500,180,700039,19500,500230,0.0,New 500/230 kV 2W Transformer,1.0,0.0,0.12,0,2000.0,2000.0,Y,2TF,,,,,,,19500
20019500,HASSYTAP_19500,33.508289,-113.031936,,230.0,0.0,PQ,19_WECC,"POINT(33.508289,-113.031936)",p28,WECC_SRSG,WestConnect,WestConnect_South,MTN,AZ,western,USA,mountain,AZ,19500,181,700039,19500,500230,0.0,New 500/230 kV 2W Transformer,2.0,0.0,0.12,0,2000.0,2000.0,Y,2TF,,,,,,,19500
20040123,BOARD T2_40123,45.845986,-119.648816,,230.0,0.0,PQ,40_WECC,"POINT(45.845986,-119.648816)",p5,WECC_NWPP,NorthernGrid,NorthernGrid_West,PA,OR,western,USA,pacific,OR,40123,2,700001,40123,500230,0.0,New 500/230 kV 2W Transformer,1.0,0.0,0.12,0,2000.0,2000.0,Y,2TF,,,,,,,40123
20040123,BOARD T2_40123,45.845986,-119.648816,,230.0,0.0,PQ,40_WECC,"POINT(45.845986,-119.648816)",p5,WECC_NWPP,NorthernGrid,NorthernGrid_West,PA,OR,western,USA,pacific,OR,40123,3,700001,40123,500230,0.0,New 500/230 kV 2W Transformer,2.0,0.0,0.12,0,2000.0,2000.0,Y,2TF,,,,,,,40123
